,name,x,y,address
0,ABRAMOWICE PL,22.562247,51.1889143,"Abramowice, Lublin, województwo lubelskie, Polska"
1,ACHENE BE,5.0458772,50.2668644,"Achêne, Ciney, Dinant, Namur, Wallonie, 5590, België / Belgique / Belgien"
2,ACHENE FR,7.62703684254539,48.582112800000004,"Achenheim, Strasbourg, Bas-Rhin, Grand Est, France métropolitaine, 67204, France"
3,ACHENE SNCB BE,5.0458772,50.2668644,"Achêne, Ciney, Dinant, Namur, Wallonie, 5590, België / Belgique / Belgien"
4,ADAMOW PL,22.2623567,51.7436921,"Adamów, gmina Adamów, powiat łukowski, województwo lubelskie, 21-412, Polska"
5,AFTAKKING BUGGENHOUT 380k V BE,4.4112059,50.9496764,"Aftakking Maalbeek, Verbrande Brug, Grimbergen, Halle-Vilvoorde, Vlaams-Brabant, Vlaanderen, 1850, België / Belgique / Belgien"
6,AFTAKKING LIEFKENSHOEK 380k V BE,4.4112059,50.9496764,"Aftakking Maalbeek, Verbrande Brug, Grimbergen, Halle-Vilvoorde, Vlaams-Brabant, Vlaanderen, 1850, België / Belgique / Belgien"
7,AFTAKKING MEKINGEN 380k V BE,4.4112059,50.9496764,"Aftakking Maalbeek, Verbrande Brug, Grimbergen, Halle-Vilvoorde, Vlaams-Brabant, Vlaanderen, 1850, België / Belgique / Belgien"
8,AFTAKKING RODENHUIZE 380k V BE,4.4112059,50.9496764,"Aftakking Maalbeek, Verbrande Brug, Grimbergen, Halle-Vilvoorde, Vlaams-Brabant, Vlaanderen, 1850, België / Belgique / Belgien"
9,AFTAKKING ZUTTENDAAL 380k V BE,4.4112059,50.9496764,"Aftakking Maalbeek, Verbrande Brug, Grimbergen, Halle-Vilvoorde, Vlaams-Brabant, Vlaanderen, 1850, België / Belgique / Belgien"
10,AGASSES LES FR,3.0453255,43.6109518,"Cap des Agasses, Combes, Béziers, Hérault, Occitanie, France métropolitaine, 34240, France"
11,ALBERTVILLE FR,6.3925417,45.6754622,"Albertville, Savoie, Auvergne-Rhône-Alpes, France métropolitaine, 73200, France"
12,ALBRECHTICE PL,,,
13,ALEGRO CONVERTOR STATION BE,4.2021761,51.0156697,"Alegro, 93, Kerkstraat, Buggenhout, Dendermonde, Oost-Vlaanderen, Vlaanderen, 9255, België / Belgique / Belgien"
14,ALYTUS PL,,,
15,ANDRE DUMONT BE,2.58986,51.1004729,"Dumont, André Dumontlaan, De Panne, Veurne, West-Vlaanderen, Vlaanderen, 8660, België / Belgique / Belgien"
16,ANIOLOW PL,19.3108782,49.6812243,"Anioły, Pewel Ślemieńska, gmina Świnna, powiat żywiecki, województwo śląskie, 34-322, Polska"
17,ARGIA BAYONNE SUD FR,-1.6770141851030689,43.374312599999996,"Argia, Kexiloa, Urrugne, Bayonne, Pyrénées-Atlantiques, Nouvelle-Aquitaine, France métropolitaine, 64700, France"
18,ARGOEUVES FR,2.2422062717327895,49.9394222,"Argœuves, Amiens, Somme, Hauts-de-France, France métropolitaine, 80470, France"
19,ATTAQUES LES FR,1.93483032238188,50.90028265,"Les Attaques, Calais, Pas-de-Calais, Hauts-de-France, France métropolitaine, 62730, France"
20,AUBANGE BE,5.8044993,49.5671953,"Aubange, Arlon, Luxembourg, Wallonie, 6790, België / Belgique / Belgien"
21,AUBANGE FR,5.8255364,49.5594899,"Rue de France, Athus, Aubange, Arlon, Luxembourg, Wallonie, 6791, België / Belgique / Belgien"
22,AVELGEM BE,3.449666230130913,50.777506349999996,"Avelgem, Kortrijk, West-Vlaanderen, Vlaanderen, België / Belgique / Belgien"
23,AVELGEM FR,3.4444479,50.7758362,"Avelgem, Kortrijk, West-Vlaanderen, Vlaanderen, 8580, België / Belgique / Belgien"
24,AVELIN BE,,,
25,AVELIN FR,3.0812217,50.5378519,"Avelin, Lille, Nord, Hauts-de-France, France métropolitaine, 59710, France"
26,AVOINE POSTE 400 KV FR,0.18421936616558737,47.2047125,"Avoine, Rue des Roches, Avoine, Chinon, Indre-et-Loire, Centre-Val de Loire, France métropolitaine, 37420, France"
27,AWIRS BE,5.409295,50.5985223,"Awirs, Flémalle, Liège, Wallonie, 4400, België / Belgique / Belgien"
28,Alba Iulia RO,23.5709036,46.0541282,"Lukoil, Bulevardul Ferdinand I, Partoş, Alba Iulia, Alba, 510152, România"
29,Albertirsa HU,19.620721294194617,47.24622145,"Albertirsa, Ceglédi járás, Pest megye, Közép-Magyarország, Magyarország"
30,Albrechtice CZ,16.644696,49.927545,"Albrechtice, okres Ústí nad Orlicí, Pardubický kraj, Severovýchod, Česko"
31,Alfstedt DE,9.0666915,53.5499782,"Alfstedt, Samtgemeinde Geestequelle, Landkreis Rotenburg (Wümme), Niedersachsen, Deutschland"
32,Algermissen DE,9.9679044,52.2514068,"Algermissen, Landkreis Hildesheim, Niedersachsen, 31191, Deutschland"
33,Altbach DE,9.3807848,48.7244372,"Altbach, Gemeindeverwaltungsverband Plochingen, Landkreis Esslingen, Baden-Württemberg, 73776, Deutschland"
34,Altenfeld DE,10.975882338611706,50.572540000000004,"Altenfeld, Großbreitenbach, Ilm-Kreis, Thüringen, Deutschland"
35,Altentreptow Nord DE,13.2511258,53.7039417,"Altentreptow, Nord, Stralsunder Straße, Altentreptow, Treptower Tollensewinkel, Mecklenburgische Seenplatte, Mecklenburg-Vorpommern, 17087, Deutschland"
36,Altentreptow Süd DE,13.2598384,53.6927814,"Altentreptow, Süd, L 35, Altentreptow, Treptower Tollensewinkel, Mecklenburgische Seenplatte, Mecklenburg-Vorpommern, 17087, Deutschland"
37,Altheim AT,13.2320404,48.250022,"Altheim, Bezirk Braunau am Inn, Oberösterreich, 4950, Österreich"
38,Altheim DE,9.7705081,48.3279917,"Altheim, Gemeindeverwaltungsverband Allmendingen, Alb-Donau-Kreis, Baden-Württemberg, 89605, Deutschland"
39,Altlussheim DE,8.4981809,49.3004929,"Altlußheim, Verwaltungsgemeinschaft Hockenheim, Rhein-Neckar-Kreis, Baden-Württemberg, 68804, Deutschland"
40,Arad HU,17.388233,46.449217,"Arad-Pusztai-horgásztó, Szenyér, Marcali járás, Somogy megye, Dél-Dunántúl, Dunántúl, 8717, Magyarország"
41,Arad RO,21.3196342,46.1753793,"Arad, 310130, România"
42,Arefu RO,24.6098214,45.3299631,"Arefu, Argeș, 117041, România"
43,Aschach AT,13.903568,48.3725366,"Aschach, Bezirk Eferding, Oberösterreich, 4730, Österreich"
44,Aschaffenburg DE,9.1493636,49.9740542,"Aschaffenburg, Bayern, Deutschland"
45,Asphard DE,,,
46,Asslar DE,8.4649082,50.5927946,"Aßlar, Lahn-Dill-Kreis, Hessen, 35614, Deutschland"
47,Audorf DE,9.7185312,54.3132409,"Schacht-Audorf, Eiderkanal, Rendsburg-Eckernförde, Schleswig-Holstein, 24790, Deutschland"
48,Audorf S DE,11.0970495,52.7216076,"Audorf, Beetzendorf, Beetzendorf-Diesdorf, Altmarkkreis Salzwedel, Sachsen-Anhalt, 38489, Deutschland"
49,BAIXAS FR,2.8091531,42.7498075,"Baixas, Perpignan, Pyrénées-Orientales, Occitanie, France métropolitaine, 66390, France"
50,BARNABOS FR,0.9888891,49.6597467,"Impasse de Barnabos, Ancretiéville-Saint-Victor, Rouen, Seine-Maritime, Normandie, France métropolitaine, 76760, France"
51,BASTOGNE BE,5.7173386,50.0023102,"Bastogne, Luxembourg, Wallonie, 6600, België / Belgique / Belgien"
52,BAYET FR,3.275835769042623,46.25853085,"Bayet, Moulins, Allier, Auvergne-Rhône-Alpes, France métropolitaine, 03500, France"
53,BEAUMONT-MONTEUX FR,4.9135222152260845,45.0305582,"Beaumont-Monteux, Valence, Drôme, Auvergne-Rhône-Alpes, France métropolitaine, 26600, France"
54,BELVAL BE,,,
55,BERNEAU BE,5.731253,50.7423427,"Berneau, Liège, Wallonie, 4607, België / Belgique / Belgien"
56,BEZAUMONT FR,6.103991974152557,48.84762295,"Bezaumont, Nancy, Meurthe-et-Moselle, Grand Est, France métropolitaine, 54380, France"
57,BIANCON FR,6.761095,43.6049474,"Le Biançon, Callian, Draguignan, Var, Provence-Alpes-Côte d'Azur, France métropolitaine, 83440, France"
58,BIERUN PL,19.125296379105393,50.0842685,"Bieruń, powiat bieruńsko-lędziński, Górnośląsko-Zagłębiowska Metropolia, województwo śląskie, Polska"
59,BLACHOWNIA PL,18.9684255,50.7820239,"Blachownia, gmina Blachownia, powiat częstochowski, województwo śląskie, 42-290, Polska"
60,BOCTOIS FR,3.5186847,48.5151078,"Le Boctois, Centrale nucléaire de Nogent-sur-Seine, Nogent-sur-Seine, Aube, Grand Est, France métropolitaine, 10400, France"
61,BOGUCHWALA PL,21.9391822,49.9806882,"Boguchwała, gmina Boguchwała, powiat rzeszowski, województwo podkarpackie, Polska"
62,BOGUSZOW PL,16.208163025626426,50.7595929,"Boguszów, Boguszów-Gorce, powiat wałbrzyski, województwo dolnośląskie, 58-370, Polska"
63,BOIS-TOLLOT FR,6.0568759,46.2464906,"Bois Tollot, Prévessin, Prévessin-Moëns, Gex, Ain, Auvergne-Rhône-Alpes, France métropolitaine, 01280, France"
64,BOISSE LA FR,0.6511178179092809,44.7129372,"Boisse, Bergerac, Dordogne, Nouvelle-Aquitaine, France métropolitaine, 24560, France"
65,BOUTRE FR,5.822831,43.704147,"Boutre, Vinon-sur-Verdon, Brignoles, Var, Provence-Alpes-Côte d'Azur, France métropolitaine, 83560, France"
66,BRAUD FR,0.9109163,46.6742948,"Braud, Saint-Pierre-de-Maillé, Montmorillon, Vienne, Nouvelle-Aquitaine, France métropolitaine, 86260, France"
67,BREUIL LE FR,3.8586718,45.2757267,"Breuil, Chomelix, Le Puy-en-Velay, Haute-Loire, Auvergne-Rhône-Alpes, France métropolitaine, 43500, France"
68,BROC-CARROS LE FR,7.202768613603485,43.793394649999996,"Zone industrielle départementale de Carros-Le Broc, Carros, Grasse, Alpes-Maritimes, Provence-Alpes-Côte d'Azur, France métropolitaine, 06510, France"
69,BRUEGEL BE,5.2266001,51.0469103,"Pieter Bruegelstraat, Beringen, Hasselt, Limburg, Vlaanderen, 3580, België / Belgique / Belgien"
70,BRUME BE,5.8509834,50.3788779,"Brume, Trois-Ponts, Verviers, Liège, Wallonie, 4980, België / Belgique / Belgien"
71,BRUME SNCB BE,5.8509834,50.3788779,"Brume, Trois-Ponts, Verviers, Liège, Wallonie, 4980, België / Belgique / Belgien"
72,BUJAKOW PL,18.8008643,50.1866436,"Bujaków, Sośnia Góra, Mikołów, powiat mikołowski, Górnośląsko-Zagłębiowska Metropolia, województwo śląskie, 43-196, Polska"
73,BYCZYNA PL,18.2143288,51.1142355,"Byczyna, gmina Byczyna, powiat kluczborski, województwo opolskie, 46-220, Polska"
74,BYDGOSZCZ ZA PL,18.0002529,53.1219648,"Bydgoszcz, województwo kujawsko-pomorskie, Polska"
75,Babylon CZ,12.8617005,49.3975285,"Babylon, okres Domažlice, Plzeňský kraj, Jihozápad, Česko"
76,Bacau Sud RO,26.911764611407776,46.5522067,"Piata Sud, Strada Panselelor, Bacău, 600019, România"
77,Baia Mare 3 RO,22.5556774,44.9315134,"Băia, Mehedinți, 227356, România"
78,Barbosi RO,24.1819349,46.5808719,"Bărboși, Zau de Câmpie, Mureș, 547661, România"
79,Baru Mare RO,23.1657121,45.4702594,"Baru, Hunedoara, 337035, România"
80,Bechterdissen DE,8.6738919,51.9906571,"Bechterdissen, Leopoldshöhe, Kreis Lippe, Nordrhein-Westfalen, Deutschland"
81,Bekescsaba HU,21.0985425,46.6798003,"Békéscsaba, Békéscsabai járás, Békés megye, Dél-Alföld, Alföld és Észak, 5600, Magyarország"
82,Bekescsaba RO,19.1620737,47.4446484,"Békéscsaba utca, Liptáktelep, XVIII. kerület, Budapest, XIX. kerület, Közép-Magyarország, 1181, Magyarország"
83,Bentwisch DE,11.7311829,53.0395771,"Bentwisch, Wittenberge, Prignitz, Brandenburg, Deutschland"
84,Bergrheinfeld DE,10.1810033,50.0082136,"Bergrheinfeld, Landkreis Schweinfurt, Bayern, 97493, Deutschland"
85,Bergrheinfeld W DE,10.1810033,50.0082136,"Bergrheinfeld, Landkreis Schweinfurt, Bayern, 97493, Deutschland"
86,Bergshausen DE,9.5014981,51.2708571,"Bergshausen, Fuldabrück, Landkreis Kassel, Hessen, 34277, Deutschland"
87,Bergum NL,5.9871063,53.1954807,"Burgum, Tytsjerksteradiel, Fryslân, Nederland"
88,Bericevo SI,14.620545,46.0882874,"Beričevo, Dol pri Ljubljani, Upravna Enota Ljubljana, 1129, Slovenija"
89,Bertikow DE,13.933023545115766,53.2442165,"Bertikow, Uckerfelde, Gramzow, Uckermark, Brandenburg, Deutschland"
90,Beuren DE,6.9163463,49.7272641,"Beuren (Hochwald), Hermeskeil, Landkreis Trier-Saarburg, Rheinland-Pfalz, Deutschland"
91,Beverwijk NL,4.6603502,52.4876371,"Beverwijk, Noord-Holland, Nederland"
92,Bezdecin CZ,14.6168218,49.3325069,"Bezděčín, Želeč, okres Tábor, Jihočeský kraj, Jihozápad, 39174, Česko"
93,Bicske Del HU,18.62395266142827,47.5054401,"Bicske, Bicskei járás, Fejér megye, Közép-Dunántúl, Dunántúl, Magyarország"
94,Bilice HR,15.9029971,43.7647204,"Bilice, Općina Bilice, Šibensko-kninska županija, Hrvatska"
95,Birkenfeld DE,7.1647477,49.6488236,"Birkenfeld, Landkreis Birkenfeld, Rheinland-Pfalz, Deutschland"
96,Bisamberg AT,16.3616015,48.3316817,"Bisamberg, Gemeinde Bisamberg, Bezirk Korneuburg, Niederösterreich, 2102, Österreich"
97,Bisamberg CZ,,,
98,Bleiswijk NL,4.5310837,52.0109579,"Bleiswijk, Lansingerland, Zuid-Holland, Nederland"
99,Blockland DE,8.800021,53.142216,"Blockland, Stadtbezirk Bremen-West, Bremen, Deutschland"
100,Borken DE,6.8582247,51.8443183,"Borken, Kreis Borken, Nordrhein-Westfalen, 46325, Deutschland"
101,Borssele NL,3.7379392,51.4254902,"Borssele, Borsele, Zeeland, Nederland"
102,Bosaca SK,17.8426508,48.8264594,"Bošáca, okres Nové Mesto nad Váhom, Trenčiansky kraj, Západné Slovensko, 913 07, Slovensko"
103,Boxmeer NL,5.9450972,51.6486483,"Boxmeer, Land van Cuijk, Noord-Brabant, Nederland, 5831EL, Nederland"
104,Bradu RO,24.3289525,45.7210324,"Bradu, Avrig, Sibiu, 555201, România"
105,Brasov RO,25.6102746,45.6523093,"Brașov, România"
106,Braunschweig N DE,7.3266304,51.4273099,"Stollenmundloch Zeche Louisenglück/Braunschweig Südflügel, Nachtigallstraße, Bommern, Witten, Ennepe-Ruhr-Kreis, Nordrhein-Westfalen, 58452, Deutschland"
107,Brazi Vest RO,25.99850193005772,44.955282350000004,"Grădinița Step by Step Licurici (nr. 53 Brazi), 2, Aleea Arinului, Ploiești, Nord, Ploiești, Prahova, 100076, România"
108,Breukelen Kortrijk NL,4.9911597,52.1645075,"Fly-over Breukelen, Kortrijk, Breukelen, Stichtse Vecht, Utrecht, Nederland, 3621, Nederland"
109,Brinje HR,15.1312723,44.9998131,"Brinje, Općina Brinje, Ličko-senjska županija, 53260, Hrvatska"
110,Brokdorf DE,9.3243161,53.8687514,"Brokdorf, Wilstermarsch, Steinburg, Schleswig-Holstein, 25576, Deutschland"
111,Bruchsal Kändelweg DE,8.5573079,49.1327575,"Bruchsal Kändelweg, Industriestraße, West II, Bruchsal, Verwaltungsgemeinschaft Bruchsal, Landkreis Karlsruhe, Baden-Württemberg, 76646, Deutschland"
112,Brunsbüttel DE,9.1395423,53.8972549,"Brunsbüttel, Dithmarschen, Schleswig-Holstein, Deutschland"
113,Brunsbüttel DE,9.1395423,53.8972549,"Brunsbüttel, Dithmarschen, Schleswig-Holstein, Deutschland"
114,Bucuresti Sud RO,26.035686246085298,44.9235352,"Timken România S.A., Bulevardul București, Ploiești, Prahova, România"
115,Bühl DE,8.134423,48.6945066,"Bühl, Vereinbarte Verwaltungsgemeinschaft Bühl, Landkreis Rastatt, Baden-Württemberg, 77815, Deutschland"
116,Bünzwangen DE,9.5461178,48.7091394,"Bünzwangen, Ebersbach an der Fils, Vereinbarte Verwaltungsgemeinschaft der Stadt Ebersbach an der Fils, Landkreis Göppingen, Baden-Württemberg, 73095, Deutschland"
117,Bürs AT,9.795892015661218,47.1254977,"Gemeinde Bürs, Bezirk Bludenz, Vorarlberg, 6706, Österreich"
118,Bürs DE,11.9849832,52.6736091,"Bürs, Arneburg, Arneburg-Goldbeck, Stendal, Sachsen-Anhalt, Deutschland"
119,Büttel DE,9.226585543358507,53.90408895,"Büttel, Wilstermarsch, Steinburg, Schleswig-Holstein, Deutschland"
120,Bujakow CZ,,,
121,Bystricany SK,18.5177264,48.6589444,"Bystričany, okres Prievidza, Trenčiansky kraj, Západné Slovensko, 972 45, Slovensko"
122,Bärwalde DE,13.6724864,51.2021243,"Bärwalde, Radeburg, Meißen, Sachsen, Deutschland"
123,C. Stred CZ,14.021389325497246,50.6803356,"C, Sociální péče, Sídliště Pod Holoměří, Bukov, Ústí nad Labem, okres Ústí nad Labem, Ústecký kraj, Severozápad, 40340, Česko"
124,CALAN FR,-3.313196297277438,47.87777925,"Calan, Lorient, Morbihan, Bretagne, France métropolitaine, 56240, France"
125,CAMPOROSSO FR,7.6284178,43.8151011,"Camporosso, Imperia, Liguria, 18033, Italia"
126,CANTEGRIT FR,-0.6300743,43.4654108,"Cantegrit, Arthez-de-Béarn, Pau, Pyrénées-Atlantiques, Nouvelle-Aquitaine, France métropolitaine, 64370, France"
127,CAPELLE LA FR,1.2861862,44.0533395,"Capelle, Albefeuille-Lagarde, Castelsarrasin, Tarn-et-Garonne, Occitanie, France métropolitaine, 82290, France"
128,CAZARIL FR,0.8118226,42.9582307,"Cazaril, Razecueillé, Saint-Gaudens, Haute-Garonne, Occitanie, France métropolitaine, 31160, France"
129,CENTRALE COO BE,4.3585717,50.8468177,"Centrale - Centraal, Rue de Loxum - Loxumstraat, Quartier de la Cathédrale, Pentagone - Vijfhoek, Ville de Bruxelles - Stad Brussel, Brussel-Hoofdstad - Bruxelles-Capitale, Région de Bruxelles-Capitale - Brussels Hoofdstedelijk Gewest, 1000, België / Belgique / Belgien"
130,CERGY FR,2.0388736,49.0527528,"Cergy, Pontoise, Val-d'Oise, Île-de-France, France métropolitaine, 95895, France"
131,CHAFFARD LE FR,5.5946802,45.6331963,"Le Grand Chaffard, Les Avenières, Les Avenières Veyrins-Thuellin, La Tour-du-Pin, Isère, Auvergne-Rhône-Alpes, France métropolitaine, 38630, France"
132,CHAINGY FR,1.7749899325468501,47.89342175,"Chaingy, Orléans, Loiret, Centre-Val de Loire, France métropolitaine, 45380, France"
133,CHAMBRY FR,2.8837018214409174,48.99964845,"Chambry, Meaux, Seine-et-Marne, Île-de-France, France métropolitaine, 77910, France"
134,CHAMPAGNIER FR,5.724423968735746,45.11287635,"Champagnier, Grenoble, Isère, Auvergne-Rhône-Alpes, France métropolitaine, 38800, France"
135,CHAMPION NAMUR BE,4.9012179,50.4963866,"Champion, Namur, Wallonie, 5020, België / Belgique / Belgien"
136,CHANCEAUX FR,4.7183333,47.5200549,"Chanceaux, Dijon, Côte-d'Or, Bourgogne-Franche-Comté, France métropolitaine, 21440, France"
137,CHARPENAY FR,5.4850075,45.568757,"Charpenay, Saint-Clair-de-la-Tour, La Tour-du-Pin, Isère, Auvergne-Rhône-Alpes, France métropolitaine, 38110, France"
138,CHELM PL,23.493936945891463,51.13558825,"Chełm, województwo lubelskie, Polska"
139,CHESNOY LE FR,2.4060434,48.0405796,"Le Chesnoy, Montbarrois, Pithiviers, Loiret, Centre-Val de Loire, France métropolitaine, 45340, France"
140,CHEVALET FR,4.6457602,45.3915663,"Chevalet, Roisey, Saint-Étienne, Loire, Auvergne-Rhône-Alpes, France métropolitaine, 42520, France"
141,CHMIELOW PL,20.3390326,50.3666746,"Chmielów, gmina Działoszyce, powiat pińczowski, województwo świętokrzyskie, Polska"
142,CHOOZ BE,,,
143,CHOOZ FR,4.798562123833934,50.092551,"Chooz, Charleville-Mézières, Ardennes, Grand Est, France métropolitaine, 08600, France"
144,CIEPLICE PL,19.3422611,54.2554935,"Cieplice, gmina Elbląg, powiat elbląski, województwo warmińsko-mazurskie, Polska"
145,CIROLLIERS FR,2.0689244,48.4717499,"Les Cirolliers, La Forêt-le-Roi, Étampes, Essonne, Île-de-France, France métropolitaine, 91410, France"
146,CLERAC FR,-0.2286908,45.1815802,"Clérac, Jonzac, Charente-Maritime, Nouvelle-Aquitaine, France métropolitaine, 17270, France"
147,COCHE LA FR,4.7092215,49.4547866,"Coche, Terron-sur-Aisne, Vouziers, Ardennes, Grand Est, France métropolitaine, 08400, France"
148,CORDEMAIS-POSTE FR,-1.8703985672185413,47.286116050000004,"Poste électrique de Cordemais, La Chevalerais, Cordemais, Nantes, Loire-Atlantique, Pays de la Loire, France métropolitaine, 44360, France"
149,CORNIER FR,6.295974793828716,46.08960965,"Cornier, Bonneville, Haute-Savoie, Auvergne-Rhône-Alpes, France métropolitaine, 74800, France"
150,COULANGE FR,1.2406316,47.134132,"Coulangé, Villeloin-Coulangé, Loches, Indre-et-Loire, Centre-Val de Loire, France métropolitaine, 37460, France"
151,COURCELLES BE,4.376008,50.4574699,"Courcelles, Charleroi, Hainaut, Wallonie, 6180, België / Belgique / Belgien"
152,CRENEY FR,4.1272391,48.333367,"Creney-près-Troyes, Troyes, Aube, Grand Est, France métropolitaine, 10150, France"
153,CREYS FR,5.481864834314727,45.73871895,"Creys, Creys-Mépieu, La Tour-du-Pin, Isère, Auvergne-Rhône-Alpes, France métropolitaine, 38510, France"
154,CUBNEZAIS FR,-0.40786,45.07378,"Cubnezais, Blaye, Gironde, Nouvelle-Aquitaine, France métropolitaine, 33620, France"
155,CZARNA PL,18.6338405,51.3938508,"Czarna, gmina Złoczew, powiat sieradzki, województwo łódzkie, 98-270, Polska"
156,CZECZOT PL,20.967684295148647,52.282315499999996,"""Osorno"" Krzysztof Czeczot, 4, Edwarda Stachury, Marymont-Kaskada, Bielany, Warszawa, województwo mazowieckie, 01-684, Polska"
157,CZERWONAK PL,16.98026,52.46696,"Czerwonak, gmina Czerwonak, powiat poznański, województwo wielkopolskie, 62-004, Polska"
158,Calafat RO,22.9337027,43.9942983,"Calafat, Dolj, 205200, România"
159,Calea Aradului RO,21.2110139,45.777778,"Calea Torontalului, Aradului, Timișoara, Timiș, 300633, România"
160,Campia Turzii RO,23.885495172515174,46.54900685,"Prima școala românească din Câmpia Turzii, 8, Strada Avram Iancu, AlfaGen Park, Centru, Câmpia Turzii, Cluj, 405100, România"
161,Cebin CZ,16.479780962079296,49.3082989,"Čebín, okres Brno-venkov, Jihomoravský kraj, Jihovýchod, Česko"
162,Cernavoda RO,28.0316248,44.3416349,"Cernavodă, Constanța, 905200, România"
163,Cetate RO,23.0475514,44.1114259,"Cetate, Dolj, România"
164,Charlottenburg DE,13.3096834,52.515747,"Charlottenburg, Charlottenburg-Wilmersdorf, Berlin, Deutschland"
165,Chodov CZ,12.8301371,49.4178263,"Chodov, okres Domažlice, Plzeňský kraj, Jihozápad, Česko"
166,Chotejovice CZ,13.7988448,50.5779063,"Chotějovice, Světec, okres Teplice, Ústecký kraj, Severozápad, Česko"
167,Chrast CZ,15.9340257,49.9018929,"Chrast, okres Chrudim, Pardubický kraj, Severovýchod, Česko"
168,Cierny Vah SK,19.928742689565553,49.011803900000004,"PVE Čierny Váh, dolná nádrž, Čierny Váh, Východná, okres Liptovský Mikuláš, Žilinský kraj, Stredné Slovensko, Slovensko"
169,Cirkovce SI,15.727405,46.3948524,"Cirkovce, Kidričevo, 2326, Slovenija"
170,Cloppenburg DE,8.0438783,52.8461339,"Cloppenburg, Landkreis Cloppenburg, Niedersachsen, 49661, Deutschland"
171,Cluj Est RO,23.6284591,46.7954993,"Dinamic 92 Distribution Cluj, 16, Bulevardul Muncii, Iris, Cluj-Napoca, Zona Metropolitană Cluj, Cluj, 400227, România"
172,Cluj Floresti RO,23.48468426800494,46.734300000000005,"Metrou Cluj - Teilor, Florești, Zona Metropolitană Cluj, Cluj, România"
173,Conneforde DE,8.0577591,53.3257698,"Conneforde, Wiefelstede, Landkreis Ammerland, Niedersachsen, 26215, Deutschland"
174,Conneforde O DE,8.0577591,53.3257698,"Conneforde, Wiefelstede, Landkreis Ammerland, Niedersachsen, 26215, Deutschland"
175,Constanta Nord RO,28.6505248,44.1961857,"Fundația pt. promovarea Tehnologiei Informației și Comunicației, 15, Strada Timișana, Piața Chiliei, Faleză Nord, Constanța, Zona Metropolitană Constanța, Constanța, 900524, România"
176,Craiova Nord RO,23.81842965532019,44.3276649,"Autogara Nord, Bulevardul Decebal, Piața Gării, Craiova, Zona Metropolitană Craiova, Dolj, 200935, România"
177,Crayestein NL,4.745680026938502,51.81837715,"Crayestein, Dordrecht, Zuid-Holland, Nederland"
178,DAMBRON FR,1.872491491583574,48.11493305,"Dambron, Châteaudun, Eure-et-Loir, Centre-Val de Loire, France métropolitaine, 28140, France"
179,DISTRE FR,-0.11419910609415479,47.22755025,"Distré, Saumur, Maine-et-Loire, Pays de la Loire, France métropolitaine, 49400, France"
180,DOBROTWOR PL,,,
181,DOBRZEN PL,17.28459,51.24388,"Dobrzeń, gmina Dobroszyce, powiat oleśnicki, województwo dolnośląskie, Polska"
182,DOEL BE,4.245205240599269,51.31762105,"Doel, Beveren, Sint-Niklaas, Oost-Vlaanderen, Vlaanderen, België / Belgique / Belgien"
183,DOMLOUP FR,-1.5236949,48.0626279,"Domloup, Rennes, Ille-et-Vilaine, Bretagne, France métropolitaine, 35410, France"
184,DONZAC FR,-0.2663051,44.6517987,"Donzac, Langon, Gironde, Nouvelle-Aquitaine, France métropolitaine, 33410, France"
185,DROGENBOS BE,4.3173542,50.786532,"Drogenbos, Halle-Vilvoorde, Vlaams-Brabant, Vlaanderen, België / Belgique / Belgien"
186,DUNOWO PL,16.1077967,54.1097161,"Dunowo, gmina Świeszyno, powiat koszaliński, województwo zachodniopomorskie, 76-024, Polska"
187,Dakovo HR,18.4116376,45.3080745,"Đakovo, Grad Đakovo, Osječko-baranjska županija, 31400, Hrvatska"
188,Darste RO,25.65357161426344,45.618902750000004,"Dârste, Strada Timișul Sec (Centura Brașovului), Brașov, 500299, România"
189,Dasny CZ,14.4074115,49.0192314,"Dasný, okres České Budějovice, Jihočeský kraj, Jihozápad, Česko"
190,Daürsberg DE,,,
191,Daxlanden DE,8.3386057,49.0014111,"Daxlanden, Karlsruhe, Baden-Württemberg, Deutschland"
192,Dellmensingen DE,9.9039744,48.3021614,"Dellmensingen, Erbach, Alb-Donau-Kreis, Baden-Württemberg, 89155, Deutschland"
193,Detk HU,20.109051501564842,47.7602436,"Detk, Gyöngyösi járás, Heves megye, Észak-Magyarország, Alföld és Észak, 3275, Magyarország"
194,Dettingen DE,8.9343816,48.4368485,"Dettingen, Rottenburg am Neckar, Verwaltungsgemeinschaft Rottenburg am Neckar, Landkreis Tübingen, Baden-Württemberg, 72108, Deutschland"
195,Diele DE,7.3117171,53.1201491,"Diele, Weener, Landkreis Leer, Niedersachsen, Deutschland"
196,Diele NL,,,
197,Diemen NL,4.984282926187014,52.3350493,"Diemen, Noord-Holland, Nederland"
198,Dillenburg DE,8.2874957,50.7404535,"Dillenburg, Lahn-Dill-Kreis, Hessen, Deutschland"
199,Dipperz DE,9.8175609,50.5316185,"Dipperz, Landkreis Fulda, Hessen, 36160, Deutschland"
200,Divaca HR,,,
201,Divaca SI,13.9689688,45.6825252,"Divača, Upravna enota Sežana, Slovenija"
202,Djerdap RO,21.96942768046236,44.555509650000005,"Национални парк Ђердап, Svinița, Mehedinți, România"
203,Dobrudja RO,,,
204,Dobrzen CZ,,,
205,Dodewaard NL,5.6569388,51.9140052,"Dodewaard, Neder-Betuwe, Gelderland, Nederland"
206,Doekegat NL,6.8354698,53.4799346,"Doekegat / Dukegat, Eemshaven, Het Hogeland, Groningen, Nederland, 9979XD, Nederland"
207,Dörnigheim DE,8.832138271733125,50.13695465,"Dörnigheim, Maintal, Main-Kinzig-Kreis, Hessen, Deutschland"
208,Dörpen W DE,7.332776234228046,52.9710775,"Schützenhaus - BSV Dörpen e.V., 3, Veeneweg, Dörpen, Samtgemeinde Dörpen, Landkreis Emsland, Niedersachsen, 26892, Deutschland"
209,Doetinchem NL,6.281455126241391,51.958534799999995,"Doetinchem, Gelderland, Nederland"
210,Dollern DE,9.546498,53.537884,"Dollern, Samtgemeinde Horneburg, Stade, Niedersachsen, 21739, Deutschland"
211,Domnesti RO,24.8399209,45.2067013,"Domnești, Argeș, 117370, România"
212,Draganesti Olt RO,24.5219723,44.1684732,"Drăgănești-Olt, Olt, România"
213,Dreibein Mellach AT,,,
214,Dresden Süd DE,13.746866867817065,51.05980255,"Sächsisches Staatsarchiv - Hauptstaatsarchiv Dresden, Paul-Schwarze-Straße, Regierungsviertel, Innere Neustadt, Neustadt, Dresden, Sachsen, 01097, Deutschland"
215,Dürnrohr AT,15.8991336,48.3317967,"Dürnrohr, Gemeinde Zwentendorf an der Donau, Bezirk Tulln, Niederösterreich, 3435, Österreich"
216,Dumbrava RO,23.7725715,46.4356569,"Dumbrava, Alba, 517788, România"
217,Dunamenti HU,18.9216658,47.3251107,"Dunamenti hőerőmű bejárat, Újváros, Százhalombatta, Érdi járás, Pest megye, Közép-Magyarország, 2440, Magyarország"
218,Durnrohr CZ,,,
219,ECHALAS FR,4.7170998,45.5525517,"Échalas, Lyon, Rhône, Circonscription départementale du Rhône, Auvergne-Rhône-Alpes, France métropolitaine, 69700, France"
220,EEKLO NOORD BE,3.710258900102934,51.0342511,"Vorming Plus Gent-Eeklo, 8, Reigerstraat, Stationsbuurt Zuid, Gent, Oost-Vlaanderen, Vlaanderen, 9000, België / Belgique / Belgien"
221,EGUZON FR,1.5522268,46.4404981,"Éguzon, Route de Saint-Benoît, Argentières, Éguzon-Chantôme, Châteauroux, Indre, Centre-Val de Loire, France métropolitaine, 36270, France"
222,EICHSTETTEN FR,7.7314344,48.0938296,"Eichstetten, GVV Kaiserstuhl-Tuniberg, Landkreis Breisgau-Hochschwarzwald, Baden-Württemberg, 79356, Deutschland"
223,ELK BIS PL,22.3615813,53.8248304,"Ełk, powiat ełcki, województwo warmińsko-mazurskie, 19-300, Polska"
224,ELK PL,22.361915871120694,53.82395835,"Ełk, powiat ełcki, województwo warmińsko-mazurskie, 19-300, Polska"
225,ENSDORF FR,2.2363135,50.7141823,"Rue d'Ensdorf, Wizernes, Saint-Omer, Pas-de-Calais, Hauts-de-France, France métropolitaine, 62570, France"
226,Eemshaven NL,6.84650321860485,53.448402,"Eemshaven, Het Hogeland, Groningen, Nederland"
227,Eemshaven Oost NL,6.58335,53.26546,"Eemshavenweg, Oost, Groningen, Nederland, 9785AR, Nederland"
228,Eemshaven Oude Schip NL,6.84650321860485,53.448402,"Eemshaven, Het Hogeland, Groningen, Nederland"
229,Eemshaven het Hogeland NL,6.84650321860485,53.448402,"Eemshaven, Het Hogeland, Groningen, Nederland"
230,Eichstetten DE,7.7314344,48.0938296,"Eichstetten, GVV Kaiserstuhl-Tuniberg, Landkreis Breisgau-Hochschwarzwald, Baden-Württemberg, 79356, Deutschland"
231,Eickum DE,8.595972,52.1060723,"Eickum, Herford, Kreis Herford, Nordrhein-Westfalen, Deutschland"
232,Eindhoven NL,5.478633,51.4392648,"Eindhoven, Noord-Brabant, Nederland"
233,Eisenach DE,10.3193565,50.9747134,"Eisenach, Wartburgkreis, Thüringen, 99817, Deutschland"
234,Eisenhüttenstadt Abzweig DE,14.6294413,52.1448863,"Eisenhüttenstadt, Oder-Spree, Brandenburg, 15890, Deutschland"
235,Eisenhüttenstadt DE,14.6294413,52.1448863,"Eisenhüttenstadt, Oder-Spree, Brandenburg, 15890, Deutschland"
236,Elsen DE,8.6869145,51.7353263,"Elsen, Paderborn, Kreis Paderborn, Nordrhein-Westfalen, 33106, Deutschland"
237,Elsfleth W DE,8.4610136,53.2359747,"Polizei Elsfleth, 6a, Rittersweg, Elsfleth, Landkreis Wesermarsch, Niedersachsen, 26931, Deutschland"
238,Eltmann DE,10.6662064,49.9725016,"Eltmann, Landkreis Haßberge, Bayern, 97483, Deutschland"
239,Emden Borssum DE,7.227542274328728,53.34025345,"Sparkasse Emden, Ukoweg, Borssum, Emden, Niedersachsen, 26725, Deutschland"
240,Emden O DE,8.1010377,51.5531356,"Emdenstraße, Hiddingsen, Soest, Kreis Soest, Nordrhein-Westfalen, 59494, Deutschland"
241,Endersbach DE,9.3655003,48.8103115,"Endersbach, Weinstadt, Rems-Murr-Kreis, Baden-Württemberg, 71384, Deutschland"
242,Engstlatt DE,8.875064,48.2995026,"Engstlatt, Balingen, Gemeindeverwaltungsverband Balingen, Zollernalbkreis, Baden-Württemberg, 72415, Deutschland"
243,Ens NL,5.8269247,52.6366994,"Ens, Noordoostpolder, Flevoland, Nederland"
244,Ernestinovo HR,18.658932,45.4516002,"Ernestinovo, Općina Ernestinovo, Osječko-baranjska županija, 31215, Hrvatska"
245,Ernestinovo HU,,,
246,Ernsthofen AT,14.49972895965687,48.13883865,"Gemeinde Ernsthofen, Bezirk Amstetten, Niederösterreich, 4432, Österreich"
247,Ertsmyra DE,,,
248,Erzhausen DE,8.6389953,49.9524332,"Erzhausen, Landkreis Darmstadt-Dieburg, Hessen, 64390, Deutschland"
249,Etzenricht CZ,,,
250,Etzenricht DE,12.0921077,49.63183,"Etzenricht, Weiherhammer (VGem), Landkreis Neustadt an der Waldnaab, Bayern, 92694, Deutschland"
251,Etzersdorf AT,15.7525988,48.2665889,"Etzersdorf, Gemeinde Kapelln, Bezirk St. Pölten, Niederösterreich, 3141, Österreich"
252,Eula DE,12.5130329,51.1496022,"Eula, Borna, Landkreis Leipzig, Sachsen, 04552, Deutschland"
253,FAI RO,11.9137746,44.4243193,"Scardovi - Mercerie & Fai-da-Te, 71, Via Mentana, Lugo, Unione dei comuni della Bassa Romagna, Ravenna, Emilia-Romagna, 48022, Italia"
254,FRASNE FR,6.143820236171255,46.853323200000005,"Frasne, Pontarlier, Doubs, Bourgogne-Franche-Comté, France métropolitaine, 25560, France"
255,FRUGES FR,2.111462867617111,50.51439355,"Fruges, Montreuil, Pas-de-Calais, Hauts-de-France, France métropolitaine, 62310, France"
256,Fantanele RO,27.180664,47.4149775,"Fântânele, Iași, 707196, România"
257,Farge DE,8.528893,53.200157,"Farge, Blumenthal, Stadtbezirk Bremen-Nord, Bremen, Deutschland"
258,Fedderwarden DE,8.044606,53.5628789,"Fedderwarden, Wilhelmshaven, Niedersachsen, Deutschland"
259,Feistritz AT,15.7953588,47.2390415,"Feistritz, Steiermark, 58280, Österreich"
260,Felsozsolca HU,20.867984352520455,48.1091373,"Felsőzsolca, Miskolci járás, Borsod-Abaúj-Zemplén megye, Észak-Magyarország, Alföld és Észak, 3561, Magyarország"
261,Filesti RO,22.77846,46.50255,"Filești, Fața Cristesei, Alba, 517047, România"
262,Focsani Vest RO,27.1856921,45.697274,"Focșani, Vrancea, România"
263,Frankfurt N DE,14.549452,52.3412273,"Frankfurt (Oder), Brandenburg, 15230, Deutschland"
264,Frankfurt SW DE,14.4227407,51.1887438,"Frankfurt, Seidau - Židow, Westvorstadt - Zapadne předměsto, Bautzen - Budyšin, Bautzen, Sachsen, 02625, Deutschland"
265,Freiberg Nord DE,13.317487910445902,50.92211145,"Freiberg, Freiberger Werkstätten, Hainichener Straße, Lößnitz, Freiberg Nord, Kleinwaltersdorf, Freiberg, Mittelsachsen, Sachsen, 09599, Deutschland"
266,Friedrichshain DE,13.4502904,52.5122154,"Friedrichshain, Friedrichshain-Kreuzberg, Berlin, Deutschland"
267,Fundeni RO,27.0733321,46.6558655,"Fundeni, Bacău, 607566, România"
268,Förderstedt DE,11.628641815469894,51.894248250000004,"Förderstedt, Staßfurt, Salzlandkreis, Sachsen-Anhalt, 39443, Deutschland"
269,GALOREAUX LES FR,,,
270,GATINAIS FR,2.4978129638219935,48.143430699999996,"Beaumont-du-Gâtinais, Fontainebleau, Seine-et-Marne, Île-de-France, France métropolitaine, 77890, France"
271,GAUDIERE LA FR,-1.106596,48.6348842,"La Gaudière, Montigny, Isigny-le-Buat, Avranches, Manche, Normandie, France métropolitaine, 50540, France"
272,GAUGLIN FR,,,
273,GAVRELLE FR,2.8865791955320415,50.32653925,"Gavrelle, Arras, Pas-de-Calais, Hauts-de-France, France métropolitaine, 62580, France"
274,GDANSK PL,18.62860883362069,54.36119285,"Gdańsk, województwo pomorskie, Polska"
275,GDANSK PRZYJAZN PL,18.62860883362069,54.36119285,"Gdańsk, województwo pomorskie, Polska"
276,GDANSK-BLONI PL,,,
277,GENISSIAT-POSTE FR,5.8028436,46.0509702,"Injoux-Génissiat, Rue des Écoles, En Balavent, Injoux, Génissiat, Injoux-Génissiat, Nantua, Ain, Auvergne-Rhône-Alpes, France métropolitaine, 01200, France"
278,GEZELLE BE,3.128628,50.9504799,"Gezelle, 48, Stationsplein, Krottegem, Roeselare, West-Vlaanderen, Vlaanderen, 8800, België / Belgique / Belgien"
279,GKMB DE,,,
280,GKN2 DE,,,
281,GLINKI PL,22.0796152,53.5246902,"Glinki, gmina Kolno, powiat kolneński, województwo podlaskie, Polska"
282,GORZOW PL,19.2325957,50.0799574,"Gorzów, gmina Chełmek, powiat oświęcimski, województwo małopolskie, Polska"
283,GOUY BE,4.8718907,50.7243392,"Gouy, 6A, Rue du Bosquet, Quartier Saint-Médard, Jodoigne, Nivelles, Brabant wallon, Wallonie, 1370, België / Belgique / Belgien"
284,GRAMME BE,5.10524171602057,50.29404595,"Gramme, Rue Saint-Hubert, Tienne à la Justice, Ciney, Dinant, Namur, Wallonie, 5590, België / Belgique / Belgien"
285,GRANDE-ILE FR,7.747832990632323,48.582956800000005,"Grande Île, Rue Kageneck, La Petite France, Krutenau, Strasbourg, Bas-Rhin, Grand Est, France métropolitaine, 67083, France"
286,GRANZAY FR,-0.4920701,46.2223212,"Granzay, Granzay-Gript, Niort, Deux-Sèvres, Nouvelle-Aquitaine, France métropolitaine, 79360, France"
287,GREPILLES FR,6.7623742,46.5520292,"Les Grépilles, Forel, Forel (Lavaux), District de Lavaux-Oron, Vaud, 1072, Schweiz/Suisse/Svizzera/Svizra"
288,GRILLE-AVOINE FR,,,
289,GROSNE FR,6.996026019389078,47.571775,"Grosne, Belfort, Territoire-de-Belfort, Bourgogne-Franche-Comté, France métropolitaine, 90100, France"
290,GROSZOWICE PL,21.273871,51.4164815,"Groszowice, gmina Jedlnia-Letnisko, powiat radomski, województwo mazowieckie, Polska"
291,GRUDZIADZ PL,18.761893676880046,53.47251195,"Grudziądz, województwo kujawsko-pomorskie, Polska"
292,Gabcikovo HU,17.46452305,47.8800139,"Dunaremete - Gabčíkovo (Bős) komp, Dunaremetei híd - sorjási bukó, Dunaremete, Mosonmagyaróvári járás, Győr-Moson-Sopron megye, Nyugat-Dunántúl, Dunántúl, 9235, Magyarország"
293,Gabcikovo SK,17.5781248,47.8951059,"Gabčíkovo, okres Dunajská Streda, Trnavský kraj, Západné Slovensko, Slovensko"
294,Gadalin RO,23.8485171,46.8402209,"Gădălin, Zona Metropolitană Cluj, Cluj, 407351, România"
295,Galceag RO,,,
296,Ganderkesee DE,8.5451469,53.0344984,"Ganderkesee, Landkreis Oldenburg, Niedersachsen, Deutschland"
297,Geertruidenberg NL,4.877843805275408,51.6961662,"Geertruidenberg, Noord-Brabant, Nederland"
298,Gheorgheni RO,25.5998915,46.7213467,"Gheorgheni, Harghita, România"
299,Ghizdaru RO,25.8826987,43.9316777,"Ghizdaru, Giurgiu, 87217, România"
300,Giessen N DE,9.8976107,47.6841481,"Gießen, Argenbühl, Landkreis Ravensburg, Baden-Württemberg, 88260, Deutschland"
301,Gleidingen DE,9.8397516,52.2746747,"Gleidingen, Laatzen, Region Hannover, Niedersachsen, Deutschland"
302,God HU,19.1341568,47.6834336,"Göd, Dunakeszi járás, Pest megye, Közép-Magyarország, 2131, Magyarország"
303,God SK,,,
304,Godenau DE,9.7812904,52.0069565,"Godenau, Alfeld (Leine), Landkreis Hildesheim, Niedersachsen, 31061, Deutschland"
305,Göttingen DE,9.9351811,51.5328328,"Göttingen, Landkreis Göttingen, Niedersachsen, Deutschland"
306,Götzdorf DE,9.4694842,53.6363197,"Götzdorf, Stade, Niedersachsen, 21682, Deutschland"
307,Goldshöfe DE,10.1279814,48.8940723,"Goldshöfe, Goldshöfer Bahnhof, Goldshöfe, Aalen, Verwaltungsgemeinschaft Aalen, Ostalbkreis, Baden-Württemberg, 73433, Deutschland"
308,Gonyu HU,17.81550143839757,47.72026255,"Gönyű, Győri járás, Győr-Moson-Sopron megye, Nyugat-Dunántúl, Dunántúl, 9071, Magyarország"
309,Gonyu SK,,,
310,Gradacac HR,,,
311,Gradiste RO,21.3355053,46.1956548,"Grădiște, Arad, 310210, România"
312,Grafenrheinfeld DE,10.1966808,50.0055317,"Grafenrheinfeld, Landkreis Schweinfurt, Bayern, 97506, Deutschland"
313,Gransee DE,13.1588685,53.0072783,"Gransee, Gransee und Gemeinden, Oberhavel, Brandenburg, 16775, Deutschland"
314,Graustein DE,14.4739811,51.572529,"Graustein - Syjk, Spremberg, Spree-Neiße, Brandenburg, Deutschland"
315,Greuth AT,13.9121742,46.5905491,"Greuth, Villach, Kärnten, 5980, Österreich"
316,Grohnde DE,9.4203234,52.0186971,"Grohnde, Emmerthal, Landkreis Hameln-Pyrmont, Niedersachsen, 31860, Deutschland"
317,Gronau NL,6.8038191,52.292434,"Gronaustraat, Hengelo, Overijssel, Nederland, 7559WH, Nederland"
318,Grossgartach DE,9.1258701,49.1425406,"Großgartach, Leingarten, Landkreis Heilbronn, Baden-Württemberg, 74211, Deutschland"
319,Grosskrotzenburg DE,8.9837304,50.0839314,"Großkrotzenburg, Main-Kinzig-Kreis, Hessen, 63538, Deutschland"
320,Grünkraut DE,9.6523337,47.7418011,"Grünkraut, Verwaltungsverband Gullen, Landkreis Ravensburg, Baden-Württemberg, 88287, Deutschland"
321,Gütersloh DE,8.3782078,51.9063997,"Gütersloh, Kreis Gütersloh, Nordrhein-Westfalen, 33330, Deutschland"
322,Gura Ialomitei RO,27.756885897859476,44.70993575,"Primaria Gura Ialomitei, DJ213, Gura Ialomiței, Ialomița, 927166, România"
323,Gurtweil DE,8.2465136,47.6412423,"Gurtweil, Waldshut-Tiengen, Verwaltungsgemeinschaft Waldshut-Tiengen, Landkreis Waldshut, Baden-Württemberg, 79761, Deutschland"
324,Gutinas RO,26.8205276,46.206674,"Gutinaș, Bacău, 607608, România"
325,Györ AT,17.4019146,47.7509421,"Magyarország - Ausztria gázvezeték, Kimle, Mosonmagyaróvári járás, Győr-Moson-Sopron megye, Nyugat-Dunántúl, Dunántúl, 9181, Magyarország"
326,Gyor HU,17.6346815,47.687609,"Győr, Győri járás, Győr-Moson-Sopron megye, Nyugat-Dunántúl, Dunántúl, Magyarország"
327,Gyor SK,,,
328,Görries DE,11.3753278,53.6054505,"Görries, Schwerin, Mecklenburg-Vorpommern, 19061, Deutschland"
329,Güstrow DE,12.1759661,53.7936523,"Güstrow, Landkreis Rostock, Mecklenburg-Vorpommern, 18273, Deutschland"
330,H. Zdana SK,21.19367,48.6250049,"H, Železiarne, Košice - mestská časť Šaca, okres Košice II, Košice, Košický kraj, Východné Slovensko, 044 54, Slovensko"
331,H. Zivotice CZ,13.6851945,49.4664777,"Životice, okres Plzeň-jih, Plzeňský kraj, Jihozápad, Česko"
332,H.Zivotice CZ,13.6851945,49.4664777,"Životice, okres Plzeň-jih, Plzeňský kraj, Jihozápad, Česko"
333,HAGENWERDER PL,,,
334,HALEMBA PL,18.86458032095855,50.233833649999994,"Halemba, Ruda Śląska, Górnośląsko-Zagłębiowska Metropolia, województwo śląskie, 41-706, Polska"
335,HAVRE LE POSTE FR,0.1586397,49.4584243,"Poste 8, Le Havre, Seine-Maritime, Normandie, France métropolitaine, 760071, France"
336,HEINSCH BE,5.7464566,49.7007526,"Heinsch, Arlon, Luxembourg, Wallonie, België / Belgique / Belgien"
337,HENRI-PAUL FR,0.1999832,48.0083123,"Paul Henri Balluet d'Estournelles de Constant, Place des Jacobins, Cité Plantagenêt, Le Mans, Sarthe, Pays de la Loire, France métropolitaine, 72000, France"
338,HERSELA FR,,,
339,HORTA BE,4.3457493,50.8259485,"Horta, Chaussée de Waterloo - Waterlose Steenweg, Saint-Gilles - Sint-Gillis, Brussel-Hoofdstad - Bruxelles-Capitale, Région de Bruxelles-Capitale - Brussels Hoofdstedelijk Gewest, 1060, België / Belgique / Belgien"
340,HOUDREVILLE FR,6.0983269730550145,48.51283585,"Houdreville, Nancy, Meurthe-et-Moselle, Grand Est, France métropolitaine, 54330, France"
341,HOUFFALIZE BE,5.7886928,50.1323761,"Houffalize, Bastogne, Luxembourg, Wallonie, België / Belgique / Belgien"
342,HUTA CZESTOCHOWA PL,19.18,50.7936111,"Huta, Kucelin, Zawodzie-Dąbie, Częstochowa, województwo śląskie, 42-207, Polska"
343,Hagenwerder DE,14.9613419,51.0681325,"Hagenwerder, Görlitz, Sachsen, Deutschland"
344,Hallendorf DE,10.3775522,52.1533277,"Hallendorf, Ortschaft Ost, Salzgitter, Niedersachsen, Deutschland"
345,Hamburg N DE,8.7202603,51.5622276,"Netto Marken-Discount, 31, Bürener Straße, Haaren, Bad Wünnenberg, Kreis Paderborn, Nordrhein-Westfalen, 33181, Deutschland"
346,Hamburg Nord DE,9.9862731,53.5907102,"Erdkorn, 77, Eppendorfer Landstraße, Eppendorf, Hamburg-Nord, Hamburg, 20249, Deutschland"
347,Hamburg Ost DE,9.971056846881888,53.586706750000005,"Zentrum für Molekulare Neurobiologie Hamburg, Martinistraße, Hoheluft-Ost, Hamburg-Nord, Hamburg, 20251, Deutschland"
348,Hamburg S DE,6.2872272,50.2314634,"Hamburg, Bleialf, Prüm, Eifelkreis Bitburg-Prüm, Rheinland-Pfalz, 54608, Deutschland"
349,Hamburg Süd DE,10.033153587391286,53.58397815,"Arbeitsgericht Hamburg, 96, Osterbekstraße, Barmbek-Süd, Hamburg-Nord, Hamburg, 22083, Deutschland"
350,Handewitt DE,9.3257408,54.7674684,"Handewitt, Schleswig-Flensburg, Schleswig-Holstein, Deutschland"
351,Hanekenfähr DE,7.3031386,52.471518,"Hanekenfähr, Lingen (Ems), Landkreis Emsland, Niedersachsen, 49808, Deutschland"
352,Hannover W DE,9.7443616,52.3454846,"Maschsee West, Karl-Thiele-Weg, Südstadt, Südstadt-Bult, Hannover, Region Hannover, Niedersachsen, 30519, Deutschland"
353,Hardegsen DE,9.8322034,51.6528043,"Hardegsen, Landkreis Northeim, Niedersachsen, 37181, Deutschland"
354,Hasdat RO,22.9217691,45.7344559,"Hășdat, Hunedoara, 331003, România"
355,Hattorf DE,10.7463328,52.3600784,"Hattorf, Wolfsburg, Niedersachsen, 38444, Deutschland"
356,Hausruck AT,16.1011633,48.0666439,"Hausruck, Gemeinde Wienerwald, Bezirk Mödling, Niederösterreich, 2534, Österreich"
357,Heide W DE,7.361786,51.1344748,"Heide, Neuhückeswagen, Heide, Hückeswagen, Oberbergischer Kreis, Nordrhein-Westfalen, 42499, Deutschland"
358,Heidelberg DE,8.694724,49.4093582,"Heidelberg, Baden-Württemberg, Deutschland"
359,Heilbronn DE,9.218655,49.142291,"Heilbronn, Baden-Württemberg, Deutschland"
360,Heinersdorf Abzweig DE,14.1894346,52.472342,"Tempelberg, Abzweig, B 5, Friedrichshof, Heinersdorf, Steinhöfel, Oder-Spree, Brandenburg, Deutschland"
361,Heinersdorf DE,13.4370149,52.5728248,"Heinersdorf, Pankow, Berlin, 13089, Deutschland"
362,Helmstedt DE,11.0104702,52.2277037,"Helmstedt, Landkreis Helmstedt, Niedersachsen, 38350, Deutschland"
363,Hengelo NL,6.795525590808008,52.2523195,"Hengelo, Overijssel, Nederland"
364,Hennigsdorf DE,13.2057511,52.6375777,"Hennigsdorf, Oberhavel, Brandenburg, 16761, Deutschland"
365,Herbertingen DE,9.44792963061036,48.0593422,"Herbertingen, Verwaltungsgemeinschaft Bad Saulgau, Landkreis Sigmaringen, Baden-Württemberg, 88518, Deutschland"
366,Herrenwyk DE,10.80359851267927,53.9009427,"Herrenwyk, Kücknitz, Lübeck, Schleswig-Holstein, Deutschland"
367,Hessenberg AT,14.999227,47.3999996,"Hessenberg, St. Peter-Freienstein, Bezirk Leoben, Steiermark, 8792, Österreich"
368,Hessenweg NL,6.1754399,52.5263982,"Hessenweg, Zwolle, Overijssel, Nederland, 8028PB, Nederland"
369,Heviz 1 HU,17.1597236,46.6962854,"Hévíz-Balaton Airport, 1, Dózsa György utca, Égenföld, Sármellék, Keszthelyi járás, Zala megye, Nyugat-Dunántúl, Dunántúl, 8391, Magyarország"
370,Heviz 2 HU,18.7411856,47.7932372,"Pilar Kft., 2, Lőrinc utca, Hévíz, Esztergom, Esztergomi járás, Komárom-Esztergom megye, Közép-Dunántúl, Dunántúl, 2500, Magyarország"
371,Heviz HR,,,
372,Heviz HU,17.1834489,46.7906038,"Hévíz, Keszthelyi járás, Zala megye, Nyugat-Dunántúl, Dunántúl, 8380, Magyarország"
373,Höpfingen DE,9.432936,49.5999517,"Höpfingen, Verwaltungsverband Hardheim-Walldürn, Neckar-Odenwald-Kreis, Baden-Württemberg, 74746, Deutschland"
374,Hoheneck DE,8.0234996,47.6256944,"Hoheneck, Görwihl, Landkreis Waldshut, Baden-Württemberg, 79733, Deutschland"
375,Hradec CZ,15.2954608,49.7072278,"Hradec, okres Havlíčkův Brod, Kraj Vysočina, Jihovýchod, Česko"
376,Hradec DE,8.6909541,50.5917657,"Hradec Králové/Königgrätz, Eichgärtenallee, Gießen, Landkreis Gießen, Hessen, 35394, Deutschland"
377,Hüffenhardt DE,9.0827453,49.2908862,"Hüffenhardt, Verwaltungsgemeinschaft Haßmersheim, Neckar-Odenwald-Kreis, Baden-Württemberg, 74928, Deutschland"
378,Huntorf DE,8.3897014,53.1956997,"Huntorf, Butteldorf, Elsfleth, Landkreis Wesermarsch, Niedersachsen, 26931, Deutschland"
379,Husum N DE,9.0538156,54.4853638,"Husum, Nordfriesland, Schleswig-Holstein, 25813, Deutschland"
380,ISSEL FR,1.9975755957796515,43.36790695,"Issel, Carcassonne, Aude, Occitanie, France métropolitaine, 11400, France"
381,IZEGEM BE,3.2090654210556964,50.913822249999996,"Izegem, Roeselare, West-Vlaanderen, Vlaanderen, 8870, België / Belgique / Belgien"
382,Iaz RO,22.2338393,45.4650871,"Iaz, Obreja, Caraș-Severin, 327287, România"
383,Iernut RO,24.2306699,46.4501899,"Iernut, Mureș, România"
384,Ingolstadt DE,11.4250395,48.7630165,"Ingolstadt, Bayern, Deutschland"
385,Inhausen DE,11.5643675,48.3040272,"Inhausen, Inhausermoos, Haimhausen, Landkreis Dachau, Bayern, 85716, Deutschland"
386,Irsching DE,11.5730893,48.7574014,"Irsching, Vohburg an der Donau, Landkreis Pfaffenhofen an der Ilm, Bayern, 85088, Deutschland"
387,Isaccea RO,28.4571456,45.2721887,"Isaccea, Tulcea, 825200, România"
388,Isalnita RO,23.7332513,44.3946512,"Ișalnița, Zona Metropolitană Craiova, Dolj, 207340, România"
389,Isar DE,11.6830158,48.2496199,"Isar, 84177, Deutschland"
390,Itzehö W DE,,,
391,J. Bohunice SK,18.759669916472006,48.3491968,"Bohunice, okres Levice, Nitriansky kraj, Západné Slovensko, Slovensko"
392,JAMKI PL,20.7384219,51.4399414,"Jamki, Wir, gmina Potworów, powiat przysuski, województwo mazowieckie, 26-414, Polska"
393,JANOW PL,19.4364,50.72164,"Janów, gmina Janów, powiat częstochowski, województwo śląskie, 42-253, Polska"
394,JASINIEC PL,15.1663889,52.6661111,"Jasiniec, gmina Bogdaniec, powiat gorzowski, województwo lubuskie, 66-450, Polska"
395,JOACHIMOW PL,22.3545221,52.1374542,"Joachimów, gmina Siedlce, powiat siedlecki, województwo mazowieckie, 08-110, Polska"
396,JONQUIERES FR,2.7342277309405265,49.39949275,"Jonquières, Compiègne, Oise, Hauts-de-France, France métropolitaine, 60680, France"
397,JUMEAUX LES FR,1.300038,45.3881271,"Jumeaux, Saint-Cyr-les-Champagnes, Nontron, Dordogne, Nouvelle-Aquitaine, France métropolitaine, 24270, France"
398,JUPILLE BE,5.5378392,50.2088221,"Jupille, Warisy, Hodister, Rendeux, Marche-en-Famenne, Luxembourg, Wallonie, 6987, België / Belgique / Belgien"
399,Jardelund DE,9.1996666,54.8256977,"Jardelund, Schafflund, Schleswig-Flensburg, Schleswig-Holstein, Deutschland"
400,Jessen Nord DE,9.5376701,54.8029321,"Jessen-Oxbüll Der Hofladen, 9, Oxbüll-Nord, Oxbüll, Wees, Langballig, Schleswig-Flensburg, Schleswig-Holstein, 24999, Deutschland"
401,Jochenstein AT,13.708489830764297,48.515019249999995,"Jausenstation Jochenstein, 17, B130, Edt, Engelhartszell an der Donau, Bezirk Schärding, Oberösterreich, 4090, Österreich"
402,Jozsa HU,21.5800816,47.601987,"Józsa, Debrecen, Debreceni járás, Hajdú-Bihar megye, Észak-Alföld, Alföld és Észak, 4225, Magyarország"
403,KALLO BE,4.27803,51.2519515,"Kallo, Beveren, Sint-Niklaas, Oost-Vlaanderen, Vlaanderen, België / Belgique / Belgien"
404,KATOWICE PL,19.0215852,50.2598987,"Katowice, Górnośląsko-Zagłębiowska Metropolia, województwo śląskie, Polska"
405,KEDZIERZYN PL,19.7343485,52.695948,"Kędzierzyn, gmina Bielsk, powiat płocki, województwo mazowieckie, 09-230, Polska"
406,KIELCE PIASKI PL,20.6337111,50.9040453,"Podstacja trakcyjna PT Kielce Piaski, Zagnańska, Piaski, Kielce, województwo świętokrzyskie, 25-563, Polska"
407,KIELCE PL,20.609914352101452,50.85403585,"Kielce, powiat kielecki, województwo świętokrzyskie, Polska"
408,KLIKOWA PL,20.946454,50.04495,"Klikowa, Tarnów, województwo małopolskie, 33-100, Polska"
409,KOKSOCHEMIA PL,20.1044867,50.0719064,"Koksochemia, Igołomska, Osiedle Robotnicze, Kombinat, Nowa Huta, Kraków, województwo małopolskie, 31-983, Polska"
410,KOMOROWICE PL,17.0021085,51.0159371,"Komorowice, Karwiany, gmina Żórawina, powiat wrocławski, województwo dolnośląskie, 52-200, Polska"
411,KONIN PL,18.2521112,52.2301933,"Konin, województwo wielkopolskie, Polska"
412,KOPANINA PL,19.6386111,51.1938889,"Kopanina, Kolonia Bujniczki, gmina Gorzkowice, powiat piotrkowski, województwo łódzkie, 97-350, Polska"
413,KOZIENICE PL,21.549883,51.5849678,"Kozienice, gmina Kozienice, powiat kozienicki, województwo mazowieckie, 26-900, Polska"
414,KRAJNIK PL,14.4697273,53.1974005,"Krajnik, gmina Gryfino, powiat gryfiński, województwo zachodniopomorskie, 74-105, Polska"
415,KROMOLICE PL,17.1704234,52.2679574,"Kromolice, gmina Kórnik, powiat poznański, województwo wielkopolskie, Polska"
416,KROSNO ISKRZYNIA PL,21.8651647,49.6790942,"Iskrzynia, gmina Korczyna, powiat krośnieński, województwo podkarpackie, 38-422, Polska"
417,KROSNO PL,21.75347880451494,49.68898435,"Krosno, województwo podkarpackie, Polska"
418,Kainachtal AT,15.49864,46.8864889,"Kainachtalstraße, Kainach bei Wildon, Wildon, Bezirk Leibnitz, Steiermark, 8410, Österreich"
419,Kainachtal SI,,,
420,Karben DE,8.7717673,50.2313417,"Karben, Wetteraukreis, Hessen, 61184, Deutschland"
421,Karlsruhe DE,8.4034195,49.0068705,"Karlsruhe, Baden-Württemberg, Deutschland"
422,Karlsruhe West DE,8.401331108499702,49.01270195,"Bundesverfassungsgericht, 3, Schlossbezirk, Innenstadt-West Östlicher Teil, Innenstadt-West, Karlsruhe, Baden-Württemberg, 76131, Deutschland"
423,Kasso DE,6.900764938979943,49.63531555,"Bistro Pi-Kasso, 47, Hauptstraße, Gusenburg, Hermeskeil, Landkreis Trier-Saarburg, Rheinland-Pfalz, 54413, Deutschland"
424,Kempten AT,10.61969471618445,47.495625399999994,"Tannheimer Hütte, 71, Gemeinde Nesselwängle, Bezirk Reutte, Tirol, 6672, Österreich"
425,Kerepes HU,19.30267390611957,47.559180600000005,"Kerepes, Gödöllői járás, Pest megye, Közép-Magyarország, Magyarország"
426,Kiel S DE,7.2367441,50.965289,"Kiel, Unterkülheim, Bergisch Gladbach, Rheinisch-Bergischer Kreis, Nordrhein-Westfalen, 51429, Deutschland"
427,Kiel W DE,10.144719060049372,54.37953465,"Flughafen Kiel-Holtenau, Stettiner Weg, Stift, Altenholz, Rendsburg-Eckernförde, Schleswig-Holstein, 24161, Deutschland"
428,Kisvarda HU,22.0784247,48.2257593,"Kisvárda, Kisvárdai járás, Szabolcs-Szatmár-Bereg megye, Észak-Alföld, Alföld és Észak, 4600, Magyarország"
429,Klaus AT,9.647796,47.3077586,"Klaus, Gemeinde Klaus, Bezirk Feldkirch, Vorarlberg, 6833, Österreich"
430,Klece SI,14.4943175,46.0980646,"Kleče, Ljubljana, Upravna Enota Ljubljana, 1001, Slovenija"
431,Kledering AT,16.435957,48.1322075,"Kledering, Gemeinde Schwechat, Bezirk Bruck an der Leitha, Niederösterreich, 2320, Österreich"
432,Klein Ilsede DE,10.1408802,52.2693158,"Klein Solschen, Ilsede, Landkreis Peine, Niedersachsen, Deutschland"
433,Kletne CZ,17.9061469,49.6709937,"Kletné, Suchdol nad Odrou, okres Nový Jičín, Moravskoslezský kraj, Moravskoslezsko, Česko"
434,Klostermansfeld DE,11.4933395,51.5841525,"Klostermansfeld, Mansfelder Grund-Helbra, Mansfeld-Südharz, Sachsen-Anhalt, 06308, Deutschland"
435,Kocin CZ,13.4761378,49.9303801,"Kočín, okres Plzeň-sever, Plzeňský kraj, Jihozápad, 331 41, Česko"
436,Konjsko HR,16.5009741,43.5933037,"Konjsko, Općina Klis, Splitsko-dalmatinska županija, Hrvatska"
437,Kopanina CZ,17.0555509,49.4054191,"Kopanina, Vincencov, okres Prostějov, Olomoucký kraj, Střední Morava, 79806, Česko"
438,Kosice SK,21.2496774,48.7172272,"Košice, Košický kraj, Východné Slovensko, Slovensko"
439,Kozlodui RO,23.728258,43.7727332,"Козлодуй, Враца, 3320, Бългaрия"
440,Krajnik DE,,,
441,Krasikov CZ,16.6956957,49.8555825,"Krasíkov, okres Ústí nad Orlicí, Pardubický kraj, Severovýchod, Česko"
442,Kriegenbrunn DE,10.954261,49.5559747,"Kriegenbrunn, Frauenaurach, Erlangen, Bayern, 91056, Deutschland"
443,Kriftel DE,8.4707355,50.0850027,"Kriftel, Main-Taunus-Kreis, Hessen, 65830, Deutschland"
444,Krimpen a d IJssel NL,4.5887889,51.914403,"Krimpen aan den IJssel, Zuid-Holland, Nederland"
445,Krizovany CZ,,,
446,Krizovany SK,21.05,48.9833333,"Krížovany, okres Prešov, Prešovský kraj, Východné Slovensko, 082 33, Slovensko"
447,Kronstorf AT,14.4644653,48.142235,"Kronstorf, Bezirk Linz-Land, Oberösterreich, 4484, Österreich"
448,Krosno SK,,,
449,Krsko HR,,,
450,Krsko SI,15.4946767,45.9576446,"Krško, Slovenija"
451,Krümmel DE,7.7217486,50.5353537,"Krümmel, Selters (Westerwald), Westerwaldkreis, Rheinland-Pfalz, Deutschland"
452,Krün DE,11.2787041,47.5061521,"Krün, Landkreis Garmisch-Partenkirchen, Bayern, Deutschland"
453,Krümmel DE,7.7217486,50.5353537,"Krümmel, Selters (Westerwald), Westerwaldkreis, Rheinland-Pfalz, Deutschland"
454,Kühmoos DE,12.9236498,48.7556165,"Kühmoos, Aholming, Landkreis Deggendorf, Bayern, 94527, Deutschland"
455,Kühtai DE,,,
456,Kummerfeld DE,9.791835937499442,53.70360945,"Kummerfeld, Pinnau, Pinneberg, Schleswig-Holstein, 25495, Deutschland"
457,Kupferzell DE,9.6902519,49.2276928,"Kupferzell, Verwaltungsverband Hohenloher Ebene, Hohenlohekreis, Baden-Württemberg, 74635, Deutschland"
458,Kuppenheim DE,8.2545743,48.8272323,"Kuppenheim, Nachbarschaftsverband Bischweier-Kuppenheim, Landkreis Rastatt, Baden-Württemberg, 76456, Deutschland"
459,L. Mara SK,21.190553,48.6221649,"L, Železiarne, Košice - mestská časť Šaca, okres Košice II, Košice, Košický kraj, Východné Slovensko, 044 54, Slovensko"
460,LA TROQUE BE,5.4974623,50.6041866,"La Troque, Jemeppe-Sur-Meuse, Seraing, Liège, Wallonie, 4100, België / Belgique / Belgien"
461,LAGISZA PL,19.1373312,50.3500663,"Łagisza, Będzin, powiat będziński, Górnośląsko-Zagłębiowska Metropolia, województwo śląskie, 42-500, Polska"
462,LARCAY FR,0.7731444526544786,47.35135425,"Larçay, Tours, Indre-et-Loire, Centre-Val de Loire, France métropolitaine, 37270, France"
463,LATENA FR,2.927620018230453,49.6620665,"Laténa, Beaulieu-les-Fontaines, Compiègne, Oise, Hauts-de-France, France métropolitaine, 60310, France"
464,LATOUR BE,5.5704642,49.5581925,"Latour, Virton, Luxembourg, Wallonie, België / Belgique / Belgien"
465,LAUNAY FR,0.7399954686671728,49.107526199999995,"Launay, Bernay, Eure, Normandie, France métropolitaine, 27470, France"
466,LE VAL BE,4.6578823,50.7116262,"Le Pisselet, Dion-Valmont, Chaumont-Gistoux, Nivelles, Brabant wallon, Wallonie, 1325, België / Belgique / Belgien"
467,LEMESANY PL,,,
468,LESNIOW PL,19.3782767,50.6332106,"Leśniów, Żarki, gmina Żarki, powiat myszkowski, województwo śląskie, 42-310, Polska"
469,LESQUIVE FR,,,
470,LESZNO PL,16.58042182076424,51.8436068,"Leszno, województwo wielkopolskie, Polska"
471,LEVI SK,21.23710401715116,48.695298199999996,"Levi's, 32, Moldavská cesta, Terasa, Košice - mestská časť Západ, okres Košice II, Košice, Košický kraj, Východné Slovensko, 04011, Slovensko"
472,LILLO BE,4.31430209370896,51.3141717,"Lillo, Berendrecht-Zandvliet-Lillo, Antwerpen, Vlaanderen, België / Belgique / Belgien"
473,LIMEUX FR,1.8063981869911316,50.016706299999996,"Limeux, Abbeville, Somme, Hauts-de-France, France métropolitaine, 80490, France"
474,LINT BE,4.4922187,51.1268305,"Lint, Antwerpen, Vlaanderen, 2547, België / Belgique / Belgien"
475,LISKOWIEC PL,22.5472378,49.310316,"Liskowiec, Paniszczów, gmina Czarna, powiat bieszczadzki, województwo podkarpackie, 38-709, Polska"
476,LIXHE BE,5.680109,50.7550757,"Lixhe, Visé, Liège, Wallonie, 4600, België / Belgique / Belgien"
477,LOGELBACH FR,7.319627380616313,48.0828385,"Logelbach, Wintzenheim, Colmar-Ribeauvillé, Haut-Rhin, Grand Est, France métropolitaine, 68124, France"
478,LOMZA SYSTEMOWA PL,22.052183817808846,53.18243065,"Łomża, województwo podlaskie, Polska"
479,LONNY BE,,,
480,LONNY FR,4.587521648966096,49.81496035,"Lonny, Charleville-Mézières, Ardennes, Grand Est, France métropolitaine, 08150, France"
481,LOSNICE PL,19.4666667,50.5,"Łośnice, Zawiercie, powiat zawierciański, województwo śląskie, 42-401, Polska"
482,LOUISFERT FR,-1.4268225105821775,47.670376,"Louisfert, Châteaubriant-Ancenis, Loire-Atlantique, Pays de la Loire, France métropolitaine, 44110, France"
483,LUBLIN PL,22.5701022,51.250559,"Lublin, województwo lubelskie, Polska"
484,LUBOCZA PL,20.0918596,50.0965148,"Lubocza, Wzgórza Krzesławickie, Kraków, województwo małopolskie, Polska"
485,Lacu Sarat RO,22.3638024,46.8029041,"Căbești-Lacu Sărat, Lacu Sărat, Bihor, 417384, România"
486,Lage DE,8.7919583,51.9914084,"Lage, Kreis Lippe, Nordrhein-Westfalen, 32791, Deutschland"
487,Laichingen DE,9.6861474,48.4896773,"Laichingen, Gemeindeverwaltungsverband Laichinger Alb, Alb-Donau-Kreis, Baden-Württemberg, 89150, Deutschland"
488,Landesbergen DE,9.1238142,52.5610203,"Landesbergen, Samtgemeinde Mittelweser, Landkreis Nienburg/Weser, Niedersachsen, 31628, Deutschland"
489,Lauchstädt DE,11.8679537,51.3874297,"Goethestadt Bad Lauchstädt, Saalekreis, Sachsen-Anhalt, 06246, Deutschland"
490,Laufenburg DE,8.0599414,47.5671976,"Laufenburg (Baden), Landkreis Waldshut, Baden-Württemberg, 79725, Deutschland"
491,Lehrte DE,9.9748557,52.3749334,"Lehrte, Region Hannover, Niedersachsen, 31275, Deutschland"
492,Lelystad NL,5.4768915,52.5150949,"Lelystad, Flevoland, Nederland"
493,Lemesany SK,21.2719693,48.851165,"Lemešany, okres Prešov, Prešovský kraj, Východné Slovensko, 082 03, Slovensko"
494,Leupolz AT,,,
495,Levice HU,,,
496,Levice SK,18.6000869,48.2163194,"Levice, okres Levice, Nitriansky kraj, Západné Slovensko, Slovensko"
497,Lienz AT,12.750316209629112,46.82958615,"Stadt Lienz, Bezirk Lienz, Tirol, 9900, Österreich"
498,Liskovec CZ,16.7842347,49.7237248,"Lískovec, Městečko Trnávka, okres Svitavy, Pardubický kraj, Severovýchod, Česko"
499,Liskovec SK,,,
500,Liter HU,18.007435849524214,47.0908363,"Litér, Balatonalmádi járás, Veszprém megye, Közép-Dunántúl, Dunántúl, 8196, Magyarország"
501,Lotru RO,23.9380289,45.4285608,"Lotru, 247335, România"
502,Louwsmeer NL,5.8186108,53.1920549,"Louwsmeerstraat, Wielenpôlle, Leeuwarden, Fryslân, Nederland, 8936AD, Nederland"
503,Lubmin DE,13.612798,54.1318409,"Lubmin, Vorpommern-Greifswald, Mecklenburg-Vorpommern, Deutschland"
504,Ludersheim DE,11.32885,49.3955803,"Ludersheim, Altdorf bei Nürnberg, Landkreis Nürnberger Land, Bayern, 90518, Deutschland"
505,Lübeck DE,10.684738,53.866444,"Lübeck, Markt, Innenstadt, Lübeck, Schleswig-Holstein, 23552, Deutschland"
506,Lüneburg DE,10.407855,53.248706,"Lüneburg, Niedersachsen, 21339, Deutschland"
507,Lüdershagen DE,12.6096536,54.3062345,"Lüdershagen, Barth, Vorpommern-Rügen, Mecklenburg-Vorpommern, Deutschland"
508,MAASBRACHT BE,,,
509,MAERLANT BE,4.378063695546902,50.84129805,"Convent Van Maerlant, Rue Van Maerlant - Van Maerlantstraat, Quartier européen - Europese Wijk, Bruxelles - Brussel, Ville de Bruxelles - Stad Brussel, Brussel-Hoofdstad - Bruxelles-Capitale, Région de Bruxelles-Capitale - Brussels Hoofdstedelijk Gewest, 1000, België / Belgique / Belgien"
510,MAMBELIN FR,,,
511,MANDARINS FR,-0.556393,46.9255605,"Les Mandarins, Nueil-les-Aubiers, Bressuire, Deux-Sèvres, Nouvelle-Aquitaine, France métropolitaine, 79250, France"
512,MARCOURT BE,5.5268173,50.2145396,"Marcourt, Rendeux, Marche-en-Famenne, Luxembourg, Wallonie, 6987, België / Belgique / Belgien"
513,MARLENHEIM FR,7.509815889337868,48.620832750000005,"Marlenheim, Molsheim, Bas-Rhin, Grand Est, France métropolitaine, 67520, France"
514,MARMAGNE FR,4.383615984341768,47.641400700000005,"Marmagne, Montbard, Côte-d'Or, Bourgogne-Franche-Comté, France métropolitaine, 21500, France"
515,MARQUIS LE FR,-1.7061444,48.0415999,"Marquis, 6bis, Avenue de la Marionnais, Le Patis Cholet, Chartres-de-Bretagne, Rennes, Ille-et-Vilaine, Bretagne, France métropolitaine, 35131, France"
516,MARSILLON FR,-0.5999697,43.3907503,"Marsillon, Os-Marsillon, Pau, Pyrénées-Atlantiques, Nouvelle-Aquitaine, France métropolitaine, 64150, France"
517,MARTYRE LA FR,-4.167842869971915,48.43428645,"La Martyre, Brest, Finistère, Bretagne, France métropolitaine, 29800, France"
518,MASSENHOVEN BE,4.6349603,51.1990199,"Massenhoven, Zandhoven, Antwerpen, Vlaanderen, 2240, België / Belgique / Belgien"
519,MASTAING BE,,,
520,MASTAING FR,3.2966894105186673,50.3075601,"Mastaing, Valenciennes, Nord, Hauts-de-France, France métropolitaine, 59172, France"
521,MAZURES FR,2.4148978,48.1742119,"Mazures, Échilleuses, Pithiviers, Loiret, Centre-Val de Loire, France métropolitaine, 45390, France"
522,MEERHOUT BE,5.0772388,51.1317433,"Meerhout, Turnhout, Antwerpen, Vlaanderen, 2450, België / Belgique / Belgien"
523,MENTON TRINITE VICTOR FR,7.5029213,43.7753495,"Menton, Nice, Alpes-Maritimes, Provence-Alpes-Côte d'Azur, France métropolitaine, 06500, France"
524,MENUEL FR,-1.614217,49.4973976,"Hameau Menuel, Rocheville, Cherbourg, Manche, Normandie, France métropolitaine, 50260, France"
525,MERCATOR BE,4.697289,50.8824317,"Mercator, Mercatorpad, Hertogensite, Leuven, Vlaams-Brabant, Vlaanderen, 3000, België / Belgique / Belgien"
526,MERSUR-SEINE FR,,,
527,MEZEROLLES FR,2.23495,50.18663,"Mézerolles, Amiens, Somme, Hauts-de-France, France métropolitaine, 80600, France"
528,MIKULOWA PL,15.1087348,51.0807728,"Mikułowa, gmina Sulików, powiat zgorzelecki, województwo dolnośląskie, Polska"
529,MILOSNA PL,15.51022,51.0124569,"Lubomierz, gmina Lubomierz, powiat lwówecki, województwo dolnośląskie, Polska"
530,MIONS FR,4.9570975,45.6638963,"Mions, Lyon, Métropole de Lyon, Circonscription départementale du Rhône, Auvergne-Rhône-Alpes, France métropolitaine, 69780, France"
531,MOKRE PL,21.1922616,52.4446982,"Mokre, gmina Radzymin, powiat wołomiński, województwo mazowieckie, 00-410, Polska"
532,MOLIERE FR,4.7456814,44.9444694,"Moliere, Champis, Tournon-sur-Rhône, Ardèche, Auvergne-Rhône-Alpes, France métropolitaine, 07440, France"
533,MONCEAU BE,3.7531458,50.3972433,"Monceau (Elouges), Dour, Mons, Hainaut, Wallonie, 7370, België / Belgique / Belgien"
534,MONCEAU FR,2.3085925,48.8802919,"Monceau, Place de la République Dominicaine, Quartier de la Plaine-de-Monceau, Paris 17e Arrondissement, Paris, Île-de-France, France métropolitaine, 75017, France"
535,MONT-SAINT-MARTIN BE,5.5678528,50.6451365,"Mont Saint-Martin, Pierreuse, Liège, Wallonie, 4000, België / Belgique / Belgien"
536,MONTAGNLES-LANCHES FR,,,
537,MONTEZIC POSTE EXTERIEUR FR,2.636816820313072,44.7207218,"Montézic, Rodez, Aveyron, Occitanie, France métropolitaine, 12460, France"
538,MORBRAS FR,2.6415484,48.7916077,"Morbras, Avenue du Grand Étang, Roissy-en-Brie, Torcy, Seine-et-Marne, Île-de-France, France métropolitaine, 77680, France"
539,MORY PL,21.0589564,52.6131959,"Mory, gmina Pokrzywnica, powiat pułtuski, województwo mazowieckie, Polska"
540,MORZYCZYN PL,18.4063267,52.431362,"Morzyczyn, gmina Wierzbinek, powiat koniński, województwo wielkopolskie, 62-619, Polska"
541,MOSCISKA PL,23.5552065,53.0230164,"Mościska, gmina Michałowo, powiat białostocki, województwo podlaskie, Polska"
542,MOSZCZENICA PL,19.67660746199884,51.50468995,"gmina Moszczenica, powiat piotrkowski, województwo łódzkie, 97-310, Polska"
543,MOULAINE BE,,,
544,MOULAINE FR,5.8170894,49.5017543,"Moulaine, Saint-Charles, Haucourt-Moulaine, Briey, Meurthe-et-Moselle, Grand Est, France métropolitaine, 54860, France"
545,MT-SAINT-MARTIN FR,3.6364399453041294,49.27568225,"Mont-Saint-Martin, Soissons, Aisne, Hauts-de-France, France métropolitaine, 02220, France"
546,MUHLBACH FR,7.7118218,48.4006102,"Muhlbach, Gerstheim, Erstein, Sélestat-Erstein, Bas-Rhin, Grand Est, France métropolitaine, 67150, France"
547,Maade DE,8.0700492,53.5401606,"Maade, Sande, Wangerland, Landkreis Friesland, Niedersachsen, 26389, Deutschland"
548,Maasbracht NL,5.8830683,51.1428567,"Maasbracht, Maasgouw, Limburg, Nederland"
549,Maasvlakte NL,4.0197987,51.9543525,"Maasvlakte, Rotterdam, Zuid-Holland, Nederland"
550,Malchow DE,12.4245172,53.4775641,"Malchow, Mecklenburgische Seenplatte, Mecklenburg-Vorpommern, 17213, Deutschland"
551,Malesice CZ,14.4986466,50.0823383,"Malešice, Hlavní město Praha, Praha, 10800, Česko"
552,Marbach DE,10.9875835,50.9967909,"Marbach, Erfurt, Thüringen, 99092, Deutschland"
553,Maribor AT,,,
554,Maribor SI,15.6455854,46.5576439,"Maribor, 2000, Slovenija"
555,Marienberg DE,13.163188,50.6507279,"Marienberg, Erzgebirgskreis, Sachsen, 09496, Deutschland"
556,Mariselu RO,24.5080945,47.0119276,"Mărișelu, Bistrița-Năsăud, 427150, România"
557,Marke DE,11.2222702,51.1035989,"Marke, Am Ettersberg, Landkreis Weimarer Land, Thüringen, Deutschland"
558,Martonvasar HU,18.7687291,47.3299049,"Martonvásár, Martonvásári járás, Fejér megye, Közép-Dunántúl, Dunántúl, 2462, Magyarország"
559,Marzahn DE,13.563142,52.5429481,"Marzahn, Marzahn-Hellersdorf, Berlin, Deutschland"
560,Maximiliansau DE,8.2869901,49.0344882,"Maximiliansau, Wörth am Rhein, Landkreis Germersheim, Rheinland-Pfalz, 76767, Deutschland"
561,Mayrhofen AT,11.8638664,47.1672188,"Marktgemeinde Mayrhofen, Bezirk Schwaz, Tirol, Österreich"
562,Mechlenreuth DE,11.801791,50.1718024,"Mechlenreuth, Münchberg, Landkreis Hof, Bayern, 95213, Deutschland"
563,Mecklar DE,9.7612468,50.9174645,"Mecklar, Ludwigsau, Landkreis Hersfeld-Rotenburg, Hessen, 36251, Deutschland"
564,Medgidia Sud RO,28.26327032381466,44.259589649999995,"Tribunalul Medgidia, Bulevardul Independenței, Medgidia, Constanța, 905600, România"
565,Meduric HR,16.9382338,45.4579806,"Međurić, Grad Kutina, Sisačko-moslavačka županija, Hrvatska"
566,Medzibrod SK,19.3571083,48.7933995,"Medzibrod, okres Banská Bystrica, Banskobystrický kraj, Stredné Slovensko, 976 96, Slovensko"
567,Meeden DE,8.1241078,53.4320753,"Meedenstraße, Wehgast, Varel, Landkreis Friesland, Niedersachsen, 26316, Deutschland"
568,Meeden NL,6.9282183,53.1387389,"Meeden, Midden-Groningen, Groningen, Nederland"
569,Mehrum DE,10.0945772,52.3053661,"Mehrum, Hohenhameln, Landkreis Peine, Niedersachsen, 31249, Deutschland"
570,Meiningen AT,9.575875935969874,47.300142300000005,"Gemeinde Meiningen, Bezirk Feldkirch, Vorarlberg, 6812, Österreich"
571,Meiningen DE,10.4153029,50.56761,"Meiningen, Ost, Kernstadt Meiningen, Meiningen, Landkreis Schmalkalden-Meiningen, Thüringen, 98617, Deutschland"
572,Meissen DE,13.4704939,51.1630871,"Meißen, Sachsen, Deutschland"
573,Meitingen DE,10.85,48.55,"Meitingen, Landkreis Augsburg, Bayern, 86405, Deutschland"
574,Melina HR,14.5814405,45.2796322,"Melina, 79a, Bakarac, Grad Kraljevica, Primorsko-goranska županija, 51261, Hrvatska"
575,Melina SI,14.2377853,45.6646282,"Melina, Pivka, 6257, Slovenija"
576,Meppen DE,7.2980648,52.6959802,"Meppen, Bahnhofstraße, Neustadt, Meppen, Landkreis Emsland, Niedersachsen, 49716, Deutschland"
577,Metzingen DE,9.2831201,48.5397247,"Metzingen, Gemeindeverwaltungsverband Metzingen, Landkreis Reutlingen, Baden-Württemberg, 72555, Deutschland"
578,Mikulowa DE,,,
579,Milin CZ,14.0461362,49.6321628,"Milín, okres Příbram, Střední Čechy, 26231, Česko"
580,Mintia RO,22.8482887,45.9233599,"Mintia, Hunedoara, 337532, România"
581,Mirovka CZ,15.619278,49.5798222,"Mírovka, Havlíčkův Brod, okres Havlíčkův Brod, Kraj Vysočina, Jihovýchod, 58221, Česko"
582,Mitte DE,13.4040601,52.5178855,"Mitte, Berlin, Deutschland"
583,Mochovce SK,18.438051160434934,48.2647477,"Mochovce, Kalná nad Hronom, okres Levice, Nitriansky kraj, Západné Slovensko, 935 39, Slovensko"
584,Moldava SK,19.3291139,49.0018157,"Moldava, Liptovská Štiavnica, okres Ružomberok, Žilinský kraj, Stredné Slovensko, 03471, Slovensko"
585,Mostar HR,15.3885938,44.0959151,"Mostar, Zemunik Donji, Općina Zemunik Donji, Zadarska županija, 23222, Hrvatska"
586,Mraclin HR,16.0953762,45.666532,"Mraclin, Grad Velika Gorica, Zagrebačka županija, 10419, Hrvatska"
587,Mühlhausen DE,10.4589044,51.2094255,"Mühlhausen, Unstrut-Hainich-Kreis, Thüringen, Deutschland"
588,Muhlbach DE,10.4589819,48.1230183,"Mühlbach, Pfaffenhausen, Landkreis Unterallgäu, Bayern, 86470, Deutschland"
589,Mukacevo RO,22.7185112,48.4421438,"Мукачево, Мукачівська міська громада, Мукачівський район, Закарпатська область, Україна"
590,Mukachevo HU,,,
591,Mukachevo SK,,,
592,Munteni RO,22.6949164,46.8779311,"Munteni, Bihor, 417112, România"
593,NAREW PL,22.8084169,53.1154064,"Narew, Kurowo-Kolonia, gmina Kobylin-Borzymy, powiat wysokomazowiecki, województwo podlaskie, Polska"
594,NEMO CONVERTOR STATION BE,,,
595,NEOULES FR,6.0311203024636955,43.29083875,"Néoules, Brignoles, Var, Provence-Alpes-Côte d'Azur, France métropolitaine, 83136, France"
596,NEUVES-MAISONS FR,6.107466519724531,48.61639975,"Neuves-Maisons, Nancy, Meurthe-et-Moselle, Grand Est, France métropolitaine, 54230, France"
597,NOSOVICE PL,,,
598,Nadab HU,,,
599,Nadab RO,21.5098836,46.4818073,"Nădab, Chișineu-Criș, Arad, 315101, România"
600,Nehden DE,8.6369892,51.4360822,"Nehden, Brilon, Hochsauerlandkreis, Nordrhein-Westfalen, Deutschland"
601,Neünhagen DE,,,
602,Neufinsing DE,11.8042527,48.2210641,"Neufinsing, Finsing, Landkreis Erding, Bayern, 85464, Deutschland"
603,Neurott DE,8.6479725,50.0016104,"Neurott, Langen, Landkreis Offenbach, Hessen, 63225, Deutschland"
604,Neusiedl AT,15.6967215,48.3567405,"Neusiedl, Gemeinde Nußdorf ob der Traisen, Bezirk St. Pölten, Niederösterreich, 3134, Österreich"
605,Neusiedl HU,,,
606,Neznasov CZ,14.3791881,49.2319957,"Neznašov, Všemyslice, okres České Budějovice, Jihočeský kraj, Jihozápad, 37302, Česko"
607,Niederlangen DE,7.2805369,52.8572175,"Niederlangen, Samtgemeinde Lathen, Landkreis Emsland, Niedersachsen, 49779, Deutschland"
608,Niederrhein NL,,,
609,Niederstotzingen DE,10.2332512,48.5408791,"Niederstotzingen, GVV Sontheim-Niederstotzingen, Landkreis Heidenheim, Baden-Württemberg, 89168, Deutschland"
610,Niedervieland DE,8.7018135,53.0993344,"Niedervieland, Seehausen, Stadtbezirk Bremen-Süd, Bremen, 28197, Deutschland"
611,Nosovice CZ,18.426381,49.6606723,"Nošovice, okres Frýdek-Místek, Moravskoslezský kraj, Moravskoslezsko, 73951, Česko"
612,Nosovice SK,,,
613,OBERZIER BE,,,
614,OFFSHORE SWITCHYARD BE,,,
615,OFFSHORE WINDPARK BE,,,
616,OLSZTYN MATKI PL,20.3450702,53.8350372,"Mątki, gmina Jonkowo, powiat olsztyński, województwo warmińsko-mazurskie, 11-042, Polska"
617,OLSZTYN PL,20.47778052818325,53.7767239,"Olsztyn, województwo warmińsko-mazurskie, Polska"
618,OLSZTYN-MATK PL,,,
619,OLTARZEW PL,20.7641995,52.2117748,"Ołtarzew, gmina Ożarów Mazowiecki, powiat warszawski zachodni, województwo mazowieckie, Polska"
620,OSTROLEKA PL,21.574868231939817,53.07803115,"Ostrołęka, województwo mazowieckie, Polska"
621,OSTROW WLKP PL,18.1216667,52.2016667,"Ostrów, Sławsk, gmina Rzgów, powiat koniński, województwo wielkopolskie, 62-585, Polska"
622,OSTROWIEC PL,22.4869363,52.3649067,"Ostrowiec, gmina Repki, powiat sokołowski, województwo mazowieckie, 08-307, Polska"
623,OUDON FR,-1.269830460202931,47.3530321,"Oudon, Châteaubriant-Ancenis, Loire-Atlantique, Pays de la Loire, France métropolitaine, 44521, France"
624,OXYLUX BE,,,
625,Oberbachern DE,11.3686997,48.2820287,"Oberbachern, Bergkirchen, Landkreis Dachau, Bayern, 85232, Deutschland"
626,Oberbrunn DE,12.4163718,47.9642975,"Oberbrunn, Pittenhart, Obing (VGem), Landkreis Traunstein, Bayern, 83132, Deutschland"
627,Oberhaid DE,7.7203453,50.5081833,"Oberhaid, Ransbach-Baumbach, Westerwaldkreis, Rheinland-Pfalz, Deutschland"
628,Oberjettingen DE,8.7743305,48.575961,"Oberjettingen, Jettingen, Gemeindeverwaltungsverband Oberes Gäu, Landkreis Böblingen, Baden-Württemberg, 71131, Deutschland"
629,Obermooweiler DE,9.8063126,47.6531193,"Obermooweiler, Wangen im Allgäu, Verwaltungsgemeinschaft Wangen im Allgäu, Landkreis Ravensburg, Baden-Württemberg, 88239, Deutschland"
630,Obersielach AT,14.6839906,46.6630774,"Obersielach, Sankt Peter am Wallersberg, Völkermarkt, Bezirk Völkermarkt, Kärnten, 9100, Österreich"
631,Obersielach SI,,,
632,Oberwald DE,8.1907849,48.8650363,"Oberwald, Rastatt, Vereinbarte Verwaltungsgemeinschaft Rastatt, Landkreis Rastatt, Baden-Württemberg, 76437, Deutschland"
633,Oberzier NL,,,
634,Ocsa HU,19.259562691321467,47.28689315,"Ócsa, Gyáli járás, Pest megye, Közép-Magyarország, 2364, Magyarország"
635,Oftringen DE,,,
636,Ohlensehlen DE,8.9084552,52.5556397,"Woltringhausen, Ohlensehlen, Woltringhausen, Uchte, Samtgemeinde Uchte, Landkreis Nienburg/Weser, Niedersachsen, 31600, Deutschland"
637,Okroglo SI,14.5863472,46.2723405,"Okroglo, Bistričica, Kamnik, Upravna Enota Kamnik, 1242, Slovenija"
638,Oostzaan NL,4.868548732505015,52.45218065,"Oostzaan, Noord-Holland, Nederland"
639,Opocinek CZ,15.645391502987902,50.033069600000005,"Opočínek, Pardubice, okres Pardubice, Pardubický kraj, Severovýchod, Česko"
640,Oradea Sud RO,21.8959981,47.035754,"Oradea, Calea Aradului, Ioșia Sud, Oradea, Zona Metropolitană Oradea, Bihor, 410240, România"
641,Oroszlany HU,18.3148401,47.4897011,"Oroszlány, Oroszlányi járás, Komárom-Esztergom megye, Közép-Dunántúl, Dunántúl, 2840, Magyarország"
642,Oststeiermark AT,15.8839319,46.872154,"Trautmannsdorf in Oststeiermark, Bad Gleichenberg, Bezirk Südoststeiermark, Steiermark, 8344, Österreich"
643,Otelarie H RO,27.5630113,47.1170473,"Oțelărie, DJ248, Valea Adâncă, Miroslava, Zona Metropolitană Iași, Iași, 707317, România"
644,Otrokovice CZ,17.53427813299387,49.215040099999996,"Otrokovice, okres Zlín, Zlínský kraj, Střední Morava, Česko"
645,Ottenhofen DE,11.8799783,48.2157282,"Ottenhofen, Oberneuching (VGem), Landkreis Erding, Bayern, Deutschland"
646,Oudehaske NL,5.8725929,52.9561086,"Oudehaske, De Fryske Marren, Fryslân, Nederland"
647,Ovenstädt DE,8.9740823,52.4174489,"Ovenstädt, Petershagen, Kreis Minden-Lübbecke, Nordrhein-Westfalen, 32469, Deutschland"
648,P. Biskupice SK,19.829181014106084,48.2454873,"Biskupice, okres Lučenec, Banskobystrický kraj, Stredné Slovensko, Slovensko"
649,P. Bystrica CZ,16.1261044,50.6243095,"Páter, Adršpach, okres Náchod, Královéhradecký kraj, Severovýchod, 54957, Česko"
650,P. Bystrica SK,19.4449693,48.8928659,"P, modrá-skratka, Jasenie, okres Brezno, Banskobystrický kraj, Stredné Slovensko, Slovensko"
651,PABIANICE PL,19.35925466859993,51.6662312,"Pabianice, powiat pabianicki, województwo łódzkie, Polska"
652,PASIKUROWICE PL,17.1051971,51.2106209,"Pasikurowice, gmina Długołęka, powiat wrocławski, województwo dolnośląskie, Polska"
653,PATNOW PL,18.6248122,51.1464812,"Pątnów, gmina Pątnów, powiat wieluński, województwo łódzkie, Polska"
654,PELPLIN PL,18.6977797,53.9282663,"Pelplin, gmina Pelplin, powiat tczewski, województwo pomorskie, 83-130, Polska"
655,PENCHARD FR,2.8601477238095985,48.99094435,"Penchard, Meaux, Seine-et-Marne, Île-de-France, France métropolitaine, 77124, France"
656,PENLY POSTE EVACUATION FR,1.2316989,49.9788462,"Penly, Petit-Caux, Dieppe, Seine-Maritime, Normandie, France métropolitaine, 76630, France"
657,PIASECZNO PL,21.0270885,52.0747377,"Piaseczno, gmina Piaseczno, powiat piaseczyński, województwo mazowieckie, Polska"
658,PICOCHERIE LA FR,,,
659,PILA KRZEWINA PL,16.8744834,53.0735086,"Krzewina, gmina Kaczory, powiat pilski, województwo wielkopolskie, 64-810, Polska"
660,PIOTRKOW PL,16.8821979,50.7172566,"Piotrków, Niemcza, gmina Niemcza, powiat dzierżoniowski, województwo dolnośląskie, 58-230, Polska"
661,PIVOZ-CORDIER FR,,,
662,PLAINE HAUTE FR,1.2052694,43.1533119,"Plaine, Montesquieu-Volvestre, Muret, Haute-Garonne, Occitanie, France métropolitaine, 31310, France"
663,PLAN-D ORGON FR,4.9982831,43.8083763,"Plan-d'Orgon, Arles, Bouches-du-Rhône, Provence-Alpes-Côte d'Azur, France métropolitaine, 13750, France"
664,PLAUD FR,1.2152662,45.656358,"Plaud, Janailhac, Limoges, Haute-Vienne, Nouvelle-Aquitaine, France métropolitaine, 87800, France"
665,PLESSIS-GASSOT FR,2.41625127724273,49.0360543,"Le Plessis-Gassot, Sarcelles, Val-d'Oise, Île-de-France, France métropolitaine, 95720, France"
666,PLEWISKA PL,16.809783,52.3665196,"Plewiska, gmina Komorniki, powiat poznański, województwo wielkopolskie, 62-064, Polska"
667,PLOCK PL,19.713630138580008,52.535347099999996,"Płock, województwo mazowieckie, Polska"
668,PODOLSZYCE PL,19.7463889,52.5327778,"Podolszyce, Płock, województwo mazowieckie, 09-409, Polska"
669,POLANIEC PL,21.2810473,50.4329071,"Połaniec, gmina Połaniec, powiat staszowski, województwo świętokrzyskie, 28-230, Polska"
670,POLICE PL,14.5657399,53.5486435,"Police, gmina Police, powiat policki, województwo zachodniopomorskie, Polska"
671,POLKOWICE PL,16.0713371,51.5039288,"Polkowice, gmina Polkowice, powiat polkowicki, województwo dolnośląskie, Polska"
672,PORABKA-ZAR PL,19.23021624452082,49.78736655,"Zbiornik wodny elektrowni szczytowo-pompowej Porąbka-Żar, Na Żarze, Międzybrodzie Żywieckie, gmina Czernichów, powiat żywiecki, województwo śląskie, Polska"
673,POREBA PL,19.326281117557013,50.48904555,"Poręba, powiat zawierciański, województwo śląskie, 42-480, Polska"
674,POSTE DE TRANSITION LONGUE VUE 220k V BE,4.8444689,50.4631679,"Poste (boîte postale), Chaussée de Charleroi, Salzinnes, Namur, Wallonie, 5000, België / Belgique / Belgien"
675,POZNAN PLD PL,16.91973259178088,52.4006632,"Poznań, województwo wielkopolskie, Polska"
676,PRAZ-ST-ANDRE FR,6.588109,45.2050063,"La Praz, Saint-André, Saint-Jean-de-Maurienne, Savoie, Auvergne-Rhône-Alpes, France métropolitaine, 73500, France"
677,PREGUILLAC FR,-0.6199628844525189,45.66788585,"Préguillac, Saintes, Charente-Maritime, Nouvelle-Aquitaine, France métropolitaine, 17460, France"
678,PRIONNET FR,,,
679,PULAWY PL,21.985301401055878,51.4262598,"Puławy, powiat puławski, województwo lubelskie, 24-111, Polska"
680,Padriciano SI,,,
681,Paks HU,18.8589364,46.6229468,"Paks, Paksi járás, Tolna megye, Dél-Dunántúl, Dunántúl, 7030, Magyarország"
682,Parchim Süd DE,11.126108455274391,53.49460325,"Wittenburger Land Süd, Wölzow, Wittenburg, Ludwigslust-Parchim, Mecklenburg-Vorpommern, 19243, Deutschland"
683,Paroseni RO,23.2599726,45.3611312,"Jiu-Paroșeni, Vulcan, Hunedoara, 336250, România"
684,Pasewalk DE,13.9889049,53.5053677,"Pasewalk, Vorpommern-Greifswald, Mecklenburg-Vorpommern, 17309, Deutschland"
685,Pecs 1 HU,18.225298,46.0664531,"Pécs, 1, Indóház tér, Schlauch-villatelep, Siklósi városrész, Pécs, Pécsi járás, Baranya megye, Dél-Dunántúl, Dunántúl, 7623, Magyarország"
686,Pecs 2 HU,18.223718186947718,46.0658957,"Pécs, 4. és 6. vágány, Schlauch-villatelep, Siklósi városrész, Pécs, Pécsi járás, Baranya megye, Dél-Dunántúl, Dunántúl, 7623, Magyarország"
687,Pecs HR,,,
688,Pecs HU,18.2280397,46.0765883,"Pécs, Pécsi járás, Baranya megye, Dél-Dunántúl, Dunántúl, 7600, Magyarország"
689,Pehlin HR,14.4059971,45.3516319,"Pehlin, Mjesni odbor Pehlin, Grad Rijeka, Primorsko-goranska županija, 51000, Hrvatska"
690,Pehlin SI,,,
691,Pelicanu RO,,,
692,Perkata HU,18.77651595201187,47.05176455,"Perkáta, Dunaújvárosi járás, Fejér megye, Közép-Dunántúl, Dunántúl, 2431, Magyarország"
693,Perleberg Putlitz DE,12.0463019,53.2925503,"Historischer Stadtkern Perleberg, A 24, Nettelbeck, Putlitz, Putlitz-Berge, Prignitz, Brandenburg, 16949, Deutschland"
694,Perleberg DE,11.8627933,53.0762716,"Perleberg, Prignitz, Brandenburg, 19348, Deutschland"
695,Pestis RO,22.4136662,47.0731825,"Peștiș, Aleșd, Bihor, 415102, România"
696,Philippsburg DE,8.4546679,49.2367495,"Philippsburg, Verwaltungsverband Philippsburg, Landkreis Karlsruhe, Baden-Württemberg, 76661, Deutschland"
697,Phyrn AT,,,
698,Pirach AT,12.8822298,48.0168738,"Pirach, Wildshut, Sankt Pantaleon, Bezirk Braunau am Inn, Oberösterreich, 5120, Österreich"
699,Pirach DE,12.7588076,48.1470964,"Pirach, Burgkirchen an der Alz, Landkreis Altötting, Bayern, Deutschland"
700,Pitesti Sud RO,26.035686246085298,44.9235352,"Timken România S.A., Bulevardul București, Ploiești, Prahova, România"
701,Plat HR,18.2265638,42.610048,"Plat, Općina Župa dubrovačka, Dubrovačko-neretvanska županija, 20207, Hrvatska"
702,Plattling DE,12.8750665,48.7772562,"Plattling, Landkreis Deggendorf, Bayern, 94447, Deutschland"
703,Pleinting AT,,,
704,Pleinting DE,13.119804,48.6604745,"Pleinting, Vilshofen an der Donau, Landkreis Passau, Bayern, 94550, Deutschland"
705,Plomin HR,14.1801746,45.1380212,"Plomin, Općina Kršan, Istarska županija, 52234, Hrvatska"
706,Podlog AT,,,
707,Podlog HR,,,
708,Podlog SI,15.1896499,45.526278,"Podlog, Črnomelj, 8343, Slovenija"
709,Portile de Fier RO,23.554997442366627,46.7612177,"Porțile de Fier/Tășnad, Strada Porțile de Fier, Mănăștur, Cluj-Napoca, Zona Metropolitană Cluj, Cluj, 400511, România"
710,Pradella AT,,,
711,Preilack DE,14.4161789,51.8839607,"Preilack - Pśiłuk, Turnow-Preilack, Peitz/Picnjo, Spree-Neiße, Brandenburg, 03185, Deutschland"
712,Prestice CZ,13.3295697,49.5726096,"Přeštice, okres Plzeň-jih, Plzeňský kraj, Jihozápad, 33401, Česko"
713,Prestice DE,,,
714,Prijedor HR,,,
715,Prosenice CZ,17.4841797,49.4888051,"Prosenice, okres Přerov, Olomoucký kraj, Střední Morava, Česko"
716,Pulgar DE,12.3528547,51.1884162,"Pulgar, Industriestandort Böhlen-Lippendorf, Neukieritzsch, Landkreis Leipzig, Sachsen, 04564, Deutschland"
717,Pulverdingen DE,9.025837957784162,48.90655385,"Pulverdingen, Vaihingen an der Enz, VVG Vaihingen an der Enz, Landkreis Ludwigsburg, Baden-Württemberg, Deutschland"
718,Putlitz Süd DE,12.143459691729824,53.263446200000004,"Dorngrund Süd, Silmersdorf, Triglitz, Putlitz-Berge, Prignitz, Brandenburg, 16949, Deutschland"
719,QUINTES LES FR,0.2460458,47.8843348,"Les Quintes, Laigné-en-Belin, Le Mans, Sarthe, Pays de la Loire, France métropolitaine, 72220, France"
720,R. Sobota SK,19.962779957522834,48.6042168,"Genes Slovakia s.r.o., Hnúšťa, okres Rimavská Sobota, Banskobystrický kraj, Stredné Slovensko, Slovensko"
721,R.Sobota SK,19.962779957522834,48.6042168,"Genes Slovakia s.r.o., Hnúšťa, okres Rimavská Sobota, Banskobystrický kraj, Stredné Slovensko, Slovensko"
722,RADKOWICE PL,21.0377797,50.9811921,"Radkowice, gmina Pawłów, powiat starachowicki, województwo świętokrzyskie, Polska"
723,RDK7 DE,,,
724,RDK8 DE,,,
725,REALTOR FR,5.33664248701187,43.469776800000005,"Le Réaltor, Calas, Cabriès, Aix-en-Provence, Bouches-du-Rhône, Provence-Alpes-Côte d'Azur, France métropolitaine, 13480, France"
726,RECLAW PL,14.62757,53.8403,"Recław, gmina Wolin, powiat kamieński, województwo zachodniopomorskie, 72-510, Polska"
727,REMISE FR,2.844286688503269,49.64854925,"Remise, Avricourt, Compiègne, Oise, Hauts-de-France, France métropolitaine, 60310, France"
728,REPIQUAGE BIFFERDANGE 220k V BE,,,
729,REPIQUAGE HOUFFALIZE 220k V BE,,,
730,REPIQUAGE LATOUR 220k V BE,,,
731,REPIQUAGE MARCOURT 220k V BE,,,
732,REPIQUAGE SART-TILMAN 220k V BE,,,
733,REPIQUAGE SENONCHAMPS 220k V BE,,,
734,REPIQUAGE ST-AMAND 380k V BE,,,
735,REVIGNY FR,5.6020006,46.637334,"Revigny, Lons-le-Saunier, Jura, Bourgogne-Franche-Comté, France métropolitaine, 39570, France"
736,RILLAND BE,,,
737,RIMIERE BE,5.471468810820593,50.54035854999999,"Rimière, Rotheux-Rimière, Neupré, Liège, Wallonie, 4121, België / Belgique / Belgien"
738,RODENHUIZE BE,3.7916592,51.1383608,"Rodenhuize, Euro-Silo, Sint-Kruis-Winkel, Gent, Oost-Vlaanderen, Vlaanderen, 9042, België / Belgique / Belgien"
739,ROGOWIEC PL,19.3053478,51.2762795,"Rogowiec, gmina Kleszczów, powiat bełchatowski, województwo łódzkie, 97-427, Polska"
740,ROKITNICA PL,15.3922785,52.1827879,"Rokitnica, gmina Skąpe, powiat świebodziński, województwo lubuskie, Polska"
741,ROM FR,0.1152415,46.2928765,"Rom, Niort, Deux-Sèvres, Nouvelle-Aquitaine, France métropolitaine, 79120, France"
742,ROMSEE BE,5.6658323,50.6069188,"Romsée, Liège, Wallonie, 4620, België / Belgique / Belgien"
743,ROMSEE SNCB BE,5.6658323,50.6069188,"Romsée, Liège, Wallonie, 4620, België / Belgique / Belgien"
744,RONDISSONE FR,7.9654263,45.2467747,"Rondissone, Torino, Piemonte, Italia"
745,ROUGEMONTIER FR,0.7354441261576655,49.3434381,"Poste électrique de Rougemontier, Rougemontiers, Bernay, Eure, Normandie, France métropolitaine, 27350, France"
746,ROUVROY BE,5.48971,49.539075,"Rouvroy, Virton, Luxembourg, Wallonie, 6767, België / Belgique / Belgien"
747,ROZKI PL,22.8031846,50.9093171,"Rożki, gmina Żółkiewka, powiat krasnostawski, województwo lubelskie, Polska"
748,RUEYRES FR,1.8534558448883134,44.7540073,"Rueyres, Figeac, Lot, Occitanie, France métropolitaine, 46120, France"
749,RULHAT FR,,,
750,RZESZOW PL,22.0047174,50.0374531,"Rzeszów, województwo podkarpackie, Polska"
751,Ragow DE,13.90120024660268,51.885673499999996,"Ragow, Lübbenau/Spreewald, Oberspreewald-Lausitz, Brandenburg, Deutschland"
752,Rahman RO,28.272857,44.7991947,"Rahman, Tulcea, 827029, România"
753,Raitersaich DE,10.8446391,49.3729799,"Raitersaich, Roßtal, Landkreis Fürth, Bayern, 90574, Deutschland"
754,Raureni RO,24.3312487,45.0554485,"Râureni, Vâlcea, 240475, România"
755,Redipuglia SI,13.488892799999999,45.84395525,"Via Slovenia, Redipuglia, Fogliano Redipuglia, Gorizia, Friuli-Venezia Giulia, Italia"
756,Redwitz DE,11.208842913945881,50.1692357,"Redwitz (Rodach), B 173, Unterlangenstadt, Redwitz a.d.Rodach, Redwitz an der Rodach (VGem), Landkreis Lichtenfels, Bayern, 96257, Deutschland"
757,Remptendorf Großschwabhausen DE,11.6595527,50.5290352,"Remptendorf, Saale-Orla-Kreis, Thüringen, 07368, Deutschland"
758,Remptendorf DE,11.6595527,50.5290352,"Remptendorf, Saale-Orla-Kreis, Thüringen, 07368, Deutschland"
759,Reporyje CZ,14.3114667,50.0323364,"Řeporyje, Hlavní město Praha, Praha, 15500, Česko"
760,Resita RO,21.8877676,45.2890106,"Reșița, Caraș-Severin, România"
761,Retezat RO,22.8493122,45.3808045,"Retezat, Hunedoara, România"
762,Reuter DE,10.3769058,50.8867609,"Reuter, Ruhla, Wartburgkreis, Thüringen, 99842, Deutschland"
763,Rhede DE,6.696091,51.8363135,"Rhede, Kreis Borken, Nordrhein-Westfalen, 46414, Deutschland"
764,Rilland NL,4.1812417,51.4164747,"Rilland, Reimerswaal, Zeeland, Nederland"
765,Rimavska Sobota HU,,,
766,Robbenplaat NL,5.015357911150463,52.8392778,"Robbenplaat, Wieringerwerf, Hollands Kroon, Noord-Holland, Nederland"
767,Rohrsdorf CZ,14.596773,50.7918632,"Svor, okres Česká Lípa, Liberecký kraj, Severovýchod, 47151, Česko"
768,Roman Nord RO,22.217507273544435,45.4115879,"Biserica Romano-Catolică, Strada Nicolae Corneanu, Cazărmii, Caransebeș, Caraș-Severin, 325400, România"
769,Rosegg AT,14.0200876,46.5898126,"Rosegg, Bezirk Villach-Land, Kärnten, 9232, Österreich"
770,Rosiori RO,24.0947558,46.5143344,"Roșiori, Luduș, Mureș, 545206, România"
771,Rotensohl DE,10.2075879,48.7426231,"Rotensohl, Heidenheim an der Brenz, Verwaltungsgemeinschaft Heidenheim an der Brenz, Landkreis Heidenheim, Baden-Württemberg, Deutschland"
772,Rüthi AT,9.7002714,47.2557045,"Rüthiweg, Gemeinde Laterns, Bezirk Feldkirch, Vorarlberg, 6834, Österreich"
773,Röhrsdorf DE,12.837296688237778,50.86288605,"Röhrsdorf, Chemnitz, Sachsen, 09247, Deutschland"
774,S. Mitrovica HR,20.8715477,42.8886134,"Croatia, Shemsi Ahmeti, Qendra, Mitrovicë, Komuna e Mitrovicës / Opština Kosovska Mitrovica, 4000, Kosova / Kosovo"
775,S. Nova Ves SK,16.98175962152772,48.2350546,"Volkswagen Slovakia a. s., Devínska Nová Ves, Bratislava, okres Bratislava IV, Bratislavský kraj, Bratislava, Slovensko"
776,SANEM BE,,,
777,SART-TILMAN BE,5.5709363,50.5911652,"Sart Tilman, Angleur, Liège, Wallonie, 4000, België / Belgique / Belgien"
778,SAUCATS FR,-0.5958896,44.652798,"Saucats, Bordeaux, Gironde, Nouvelle-Aquitaine, France métropolitaine, 33650, France"
779,SAUSSET FR,0.4594225,43.0152182,"Sausset, Nistos, Bagnères-de-Bigorre, Hautes-Pyrénées, Occitanie, France métropolitaine, 65150, France"
780,SCHEER FR,7.261135,48.330295,"Scheer, Lalaye, Sélestat-Erstein, Bas-Rhin, Grand Est, France métropolitaine, 67220, France"
781,SCHIFFLANGE BE,,,
782,SERAING BE,5.5089437,50.6152381,"Seraing, Liège, Wallonie, 4100, België / Belgique / Belgien"
783,SEREIN FR,4.0873122,47.5251273,"Serein, Courterolles, Guillon, Guillon-Terre-Plaine, Avallon, Yonne, Bourgogne-Franche-Comté, France métropolitaine, 89420, France"
784,SEUIL FR,4.4550680236802105,49.47595955,"Seuil, Rethel, Ardennes, Grand Est, France métropolitaine, 08300, France"
785,SIEDLCE UJRZANOW PL,22.3358556,52.1284093,"Ujrzanów, gmina Siedlce, powiat siedlecki, województwo mazowieckie, 08-110, Polska"
786,SIERENTZ FR,7.4641750392285555,47.6639423,"Sierentz, Mulhouse, Haut-Rhin, Grand Est, France métropolitaine, 68510, France"
787,SIERSZA PL,19.4343061,50.1876787,"Siersza, Trzebinia, gmina Trzebinia, powiat chrzanowski, województwo małopolskie, Polska"
788,SKAWINA PL,19.8265702,49.9747508,"Skawina, gmina Skawina, powiat krakowski, województwo małopolskie, Polska"
789,SLUPSK PL,17.027730037017736,54.460570849999996,"Słupsk, województwo pomorskie, 76-200, Polska"
790,SOCHACZEW PL,20.25712361363545,52.2367219,"Sochaczew, powiat sochaczewski, województwo mazowieckie, Polska"
791,SOTEL BE,,,
792,ST-AVOLD FR,6.714320573289827,49.1279188,"Saint-Avold, Forbach-Boulay-Moselle, Moselle, Grand Est, France métropolitaine, 57500, France"
793,ST-ELOI FR,5.152575493242553,45.93419155,"Saint-Éloi, Belley, Ain, Auvergne-Rhône-Alpes, France métropolitaine, 01800, France"
794,ST-MARD BE,5.5284511,49.5577562,"Saint-Mard, Virton, Luxembourg, Wallonie, 6762, België / Belgique / Belgien"
795,ST-MARD SNCB BE,5.5284511,49.5577562,"Saint-Mard, Virton, Luxembourg, Wallonie, 6762, België / Belgique / Belgien"
796,ST-VULBAS-OUEST FR,,,
797,STALOWA WOLA PL,21.0872464,51.359243,"Stalowa, Jeżowa Wola, Potkanów, Radom, województwo mazowieckie, 26-616, Polska"
798,STANISLAWOW PL,21.5491157,52.291113,"Stanisławów, gmina Stanisławów, powiat miński, województwo mazowieckie, Polska"
799,STARNO PL,18.1432688,50.3354952,"Biuro Rachunko Huf Starno, Piastowska, Koźle, Kędzierzyn-Koźle, powiat kędzierzyńsko-kozielski, województwo opolskie, 47-200, Polska"
800,STEVIN BE,4.62325,50.668654,"Stévin, La Baraque, Louvain-la-Neuve, Ottignies-Louvain-la-Neuve, Nivelles, Brabant wallon, Wallonie, 1348, België / Belgique / Belgien"
801,SUPER-BISSORTE FR,6.5770793,45.1921015,"Téléphérique EDF de Super-Bissorte, Route Forestière de la Grande Roche, Orelle, Saint-Jean-de-Maurienne, Savoie, Auvergne-Rhône-Alpes, France métropolitaine, 73140, France"
802,SWIEBODZICE PL,16.32287834675313,50.872464550000004,"Świebodzice, powiat świdnicki, województwo dolnośląskie, 58-160, Polska"
803,Sacalaz RO,21.1110251,45.7603829,"Săcălaz, Timiș, 307370, România"
804,Sajoivanka HU,20.58697956168647,48.2582489,"Sajóivánka, Kazincbarcikai járás, Borsod-Abaúj-Zemplén megye, Észak-Magyarország, Alföld és Észak, Magyarország"
805,Sajoivanka SK,,,
806,Sajoszoged HU,20.9923296,47.9447446,"Sajószöged, Tiszaújvárosi járás, Borsod-Abaúj-Zemplén megye, Észak-Magyarország, Alföld és Észak, 3599, Magyarország"
807,Sala SK,17.81720978392582,48.18036265,"Peikko Slovakia, Kráľová nad Váhom, okres Šaľa, Nitriansky kraj, Západné Slovensko, Slovensko"
808,Salaj RO,23.019190462971554,47.1562143,"Sălaj, România"
809,Salzburg Elixhausen AT,13.061067586984326,47.862964649999995,"Hanfwolf Austria GmbH, 3a, Mattseer Landesstraße, Sachsenheim, Elixhausen, Bezirk Salzburg-Umgebung, Salzburg, 5161, Österreich"
810,Sandershausen O DE,9.5514317,51.3220806,"Sandershausen, Niestetal, Landkreis Kassel, Hessen, 34266, Deutschland"
811,Sandorfalva HU,20.12183764746486,46.37929975,"Sándorfalva, Szegedi járás, Csongrád-Csanád megye, Dél-Alföld, Alföld és Észak, 6762, Magyarország"
812,Sandorfalva RO,21.2581657,45.8058738,"Strada Sándorfalva, Dumbrăvița, Timiș, 307160, România"
813,Sarasdorf AT,16.6754925,48.0213476,"Sarasdorf, Gemeinde Trautmannsdorf, Bezirk Bruck an der Leitha, Niederösterreich, 2454, Österreich"
814,Sardanesti RO,23.3608739,44.7708602,"Sărdănești, Gorj, 217356, România"
815,Sattledt AT,14.0581292,48.0702992,"Sattledt, Bezirk Wels-Land, Oberösterreich, 4642, Österreich"
816,Schärding AT,13.4318,48.4569975,"Schärding, Bezirk Schärding, Oberösterreich, 4780, Österreich"
817,Schmölln DE,12.3520022,50.8971549,"Schmölln, Altenburger Land, Thüringen, 04626, Deutschland"
818,Schuby W DE,9.4793526,54.5137414,"Schuby, Dorf, Am Ochsenweg, Schuby, Arensharde, Schleswig-Flensburg, Schleswig-Holstein, 24850, Deutschland"
819,Schwandorf DE,12.1092708,49.3261854,"Schwandorf, Landkreis Schwandorf, Bayern, 92421, Deutschland"
820,Schwarzenbach AT,16.345529636376188,47.6430768,"Gemeinde Schwarzenbach, Bezirk Wiener Neustadt, Niederösterreich, 2803, Österreich"
821,Schweinfurt DE,10.233302,50.0499945,"Schweinfurt, Bayern, Deutschland"
822,Schwörstadt DE,7.8738189,47.5922842,"Schwörstadt, Verwaltungsgemeinschaft Rheinfelden (Baden), Landkreis Lörrach, Baden-Württemberg, 79739, Deutschland"
823,Schönewalde DE,13.2279131,51.8142338,"Schönewalde, Elbe-Elster, Brandenburg, Deutschland"
824,Senica SK,17.3661529,48.6787557,"Senica, okres Senica, Trnavský kraj, Západné Slovensko, Slovensko"
825,Senice CZ,15.2075706,50.1842315,"Senice, okres Nymburk, Střední Čechy, Česko"
826,Senj HR,14.9030557,44.9897329,"Senj, Grad Senj, Ličko-senjska županija, 52370, Hrvatska"
827,Sibiu Sud RO,24.0499985,45.8329581,"Sud - Vest, Șura Mică, Sibiu, 557270, România"
828,Siedenbrünzow DE,13.1462242,53.8971143,"Siedenbrünzow, Demmin-Land, Mecklenburgische Seenplatte, Mecklenburg-Vorpommern, Deutschland"
829,Siems DE,11.2075111,52.4995438,"Siems, Gardelegen, Altmarkkreis Salzwedel, Sachsen-Anhalt, 39649, Deutschland"
830,Siersdorf NL,,,
831,Silz DE,12.4410713,53.5202915,"Silz, Malchow, Mecklenburgische Seenplatte, Mecklenburg-Vorpommern, Deutschland"
832,Simbach AT,14.0210941,48.2775178,"Simbach, Fraham, Bezirk Eferding, Oberösterreich, 4070, Österreich"
833,Simbach DE,12.7405704,48.5638267,"Simbach, Landkreis Dingolfing-Landau, Bayern, 94436, Deutschland"
834,Simonshaven NL,4.2896471,51.82192,"Simonshaven, Nissewaard, Zuid-Holland, Nederland"
835,Siroka SK,20.9390557,48.9974615,"Široké, okres Prešov, Prešovský kraj, Východné Slovensko, 082 37, Slovensko"
836,Sisak HR,16.374592,45.4891806,"Sisak, Grad Sisak, Sisačko-moslavačka županija, Hrvatska"
837,Sittling DE,11.772554,48.8335534,"Sittling, Neustadt an der Donau, Landkreis Kelheim, Bayern, 93333, Deutschland"
838,Slatina RO,24.3631837,44.4299971,"Slatina, Olt, România"
839,Slavetice AT,,,
840,Slavetice CZ,16.1087102,49.1035997,"Slavětice, okres Třebíč, Kraj Vysočina, Jihovýchod, Česko"
841,Smardan RO,22.9645494,43.9341769,"Smârdan, Ciupercenii Noi, Dolj, 207201, România"
842,Sokolnice AT,,,
843,Sokolnice CZ,16.7210969,49.1136525,"Sokolnice, okres Brno-venkov, Jihomoravský kraj, Jihovýchod, Česko"
844,Sokolnice SK,,,
845,Sostanj SI,15.0459505,46.3773929,"Šoštanj, 3326, Slovenija"
846,Sottrum DE,9.2354374,53.1161752,"Sottrum, Samtgemeinde Sottrum, Landkreis Rotenburg (Wümme), Niedersachsen, Deutschland"
847,Soverzene AT,,,
848,St. Peter AT,15.042853065836457,47.39087115,"voestalpine Wire Rod Austria, Sankt Peter-Freienstein, St. Peter-Freienstein, Bezirk Leoben, Steiermark, 8792, Österreich"
849,St. Peter DE,11.803942801649132,51.1545807,"Naumburger Dom St. Peter und Paul, 16, Domplatz, Naumburger Gartenstadt, Naumburg (Saale), Burgenlandkreis, Sachsen-Anhalt, 06618, Deutschland"
850,St.Peter AT,15.2515153,46.7572571,"Sankt Peter im Sulmtal, Bezirk Deutschlandsberg, Steiermark, 8542, Österreich"
851,Stade W DE,9.5004681,53.573341,"Stade, Claus-von-Stauffenberg-Weg, Claus-von-Stauffenberg-Weg, Ottenbeck, Stade, Niedersachsen, 21684, Deutschland"
852,Stadorf DE,10.3956338,52.9919338,"Stadorf, Schwienau, Samtgemeinde Bevensen-Ebstorf, Uelzen, Niedersachsen, 29593, Deutschland"
853,Stalldorf DE,9.9371209,49.5658744,"Stalldorf, Riedenheim, Verwaltungsgemeinschaft Röttingen, Landkreis Würzburg, Bayern, 97283, Deutschland"
854,Stalpu RO,26.7083861,45.0851857,"Stâlpu, Buzău, 127605, România"
855,Stejaru RO,26.7021925,46.5885461,"Stejaru, Bacău, 607554, România"
856,Stendal West DE,6.8154698,51.2915436,"Stendaler Straße, West, Ratingen, Kreis Mettmann, Nordrhein-Westfalen, 40880, Deutschland"
857,Stockach DE,9.0123849,47.8565551,"Stockach, Verwaltungsgemeinschaft Stockach, Landkreis Konstanz, Baden-Württemberg, 78333, Deutschland"
858,Streumen DE,13.4054041,51.3582767,"Streumen, Wülknitz, Röderaue-Wülknitz, Meißen, Sachsen, Deutschland"
859,Stuparei RO,24.2800393,45.017362,"Stupărei, Vâlcea, 247388, România"
860,Stupava CZ,17.2486589,49.1171666,"Stupava, okres Uherské Hradiště, Zlínský kraj, Střední Morava, Česko"
861,Stupava SK,17.0327458,48.2731324,"Stupava, okres Malacky, Bratislavský kraj, Slovensko"
862,Stupina RO,24.1471882,44.5552073,"Stupina, Olt, 237069, România"
863,Subotica HU,19.6685307,46.101872,"Конзулат Мађарске у Суботици, 1-3, Ђуре Ђаковића, Центар I, МЗ Центар I, Суботица, Град Суботица, Севернобачки управни округ, Војводина, 24000, Србија"
864,Sucany SK,18.9937678,49.0990866,"Sučany, okres Martin, Žilinský kraj, Stredné Slovensko, 038 52, Slovensko"
865,Suceava RO,25.834593917414125,47.53265345,"Suceava, România"
866,Südburgenland AT,16.122859300000002,47.3758429,"Gesundheitszentrum Südburgenland vital, 11, Turbagasse, Pinkafeld, Gemeinde Pinkafeld, Bezirk Oberwart, Burgenland, 7423, Österreich"
867,Süderdonn DE,9.1169356,53.97502,"Süderdonn, Sankt Michaelisdonn, Burg-Sankt Michaelisdonn, Dithmarschen, Schleswig-Holstein, 25693, Deutschland"
868,Sugag RO,23.6269915,45.7756929,"Șugag, Alba, 517775, România"
869,Szabolcsbaka HU,22.160792606592796,48.16503385,"Szabolcsbáka, Kisvárdai járás, Szabolcs-Szatmár-Bereg megye, Észak-Alföld, Alföld és Észak, 4547, Magyarország"
870,Szigetcsep HU,18.95541609075999,47.259753700000005,"Szigetcsép, Ráckevei járás, Pest megye, Közép-Magyarország, 2317, Magyarország"
871,Szolnok HU,20.1946818,47.1754555,"Szolnok, Szolnoki járás, Jász-Nagykun-Szolnok megye, Észak-Alföld, Alföld és Észak, 5000, Magyarország"
872,Szombathely 1 HU,16.653461358929647,47.2298995,"iQor Global Services Hungary Kft., 1, Vásártér utca, Picktelep, Szombathely, Szombathelyi járás, Vas megye, Nyugat-Dunántúl, Dunántúl, 9700, Magyarország"
873,Szombathely 2 HU,16.659212150000002,47.20279815,"2, Rumi Külső út, Zarkaháza, Szombathely, Szombathelyi járás, Vas megye, Nyugat-Dunántúl, Dunántúl, 9700, Magyarország"
874,Szombathely AT,,,
875,Szombathely HU,16.6187625,47.2291184,"Szombathely, Szombathelyi járás, Vas megye, Nyugat-Dunántúl, Dunántúl, 9700, Magyarország"
876,T HAL-BYĆ PL,20.93240032295089,52.22457335,"T, Ulrychów, Wola, Warszawa, województwo mazowieckie, Polska"
877,T JOA-LAG PL,20.93240032295089,52.22457335,"T, Ulrychów, Wola, Warszawa, województwo mazowieckie, Polska"
878,TABARDERIE FR,2.7038152471570225,48.1445802,"Parc de la Tabarderie, Les Gauthiers, Château-Landon, Fontainebleau, Seine-et-Marne, Île-de-France, France métropolitaine, 77570, France"
879,TAMAREAU FR,3.7447044,43.6356073,"Chemin du Lac de Tamareau, Saint-Georges-d'Orques, Montpellier, Hérault, Occitanie, France métropolitaine, 34680, France"
880,TARNOW PL,20.96405842696229,50.025988299999995,"Tarnów, Zbylitowska Góra, gmina Tarnów, Tarnów, województwo małopolskie, Polska"
881,TAUTE FR,-1.3166456,49.1999373,"La Taute, Manche, Normandie, France métropolitaine, 50490, France"
882,TAVEL FR,4.6982216,44.0127055,"Tavel, Nîmes, Gard, Occitanie, France métropolitaine, 30126, France"
883,TE Sisak HR,6.6373386,50.6061465,"Croatia, 12, Mühlenthal, Kommern, Mechernich, Kreis Euskirchen, Nordrhein-Westfalen, 53894, Deutschland"
884,TERGNEE BE,4.5666782,50.4331092,"Rue de Tergnée, Farciennes, Charleroi, Hainaut, Wallonie, 6240, België / Belgique / Belgien"
885,TERRETTE FR,0.4266308,44.0412454,"Terrette, Moncrabeau, Nérac, Lot-et-Garonne, Nouvelle-Aquitaine, France métropolitaine, 47600, France"
886,TERRIER FR,1.0148563,45.2869604,"Terrier, Coulaures, Nontron, Dordogne, Nouvelle-Aquitaine, France métropolitaine, 24420, France"
887,TIHANGE 1 BE,5.259369,50.527586,"Tihange, Huy, Liège, Wallonie, 4500, België / Belgique / Belgien"
888,TIHANGE 2 BE,5.259369,50.527586,"Tihange, Huy, Liège, Wallonie, 4500, België / Belgique / Belgien"
889,TIHANGE 3 BE,5.259369,50.527586,"Tihange, Huy, Liège, Wallonie, 4500, België / Belgique / Belgien"
890,TIHANGE BIS BE,5.259369,50.527586,"Tihange, Huy, Liège, Wallonie, 4500, België / Belgique / Belgien"
891,TILLEUL FR,3.2297438,47.8608738,"tilleul, Les Rousserons, Sommecaise, Auxerre, Yonne, Bourgogne-Franche-Comté, France métropolitaine, 89110, France"
892,TOLLEVAST FR,-1.6256545,49.5737038,"Tollevast, Cherbourg, Manche, Normandie, France métropolitaine, 50470, France"
893,TORE SUPRA FR,5.8809869,49.1795076,"Tore, Labry, Briey, Meurthe-et-Moselle, Grand Est, France métropolitaine, 54800, France"
894,TORUN ELANA PL,18.6689167,53.0427809,"Zakład produkcyjny Maflow Toruń, Płaska, Elana, Toruń, województwo kujawsko-pomorskie, 87-100, Polska"
895,TOURBE FR,4.78693300579144,49.19758255,"Ville-sur-Tourbe, Châlons-en-Champagne, Marne, Grand Est, France métropolitaine, 51800, France"
896,TRANS FR,-0.31253250419249484,48.27984815,"Trans, Mayenne, Pays de la Loire, France métropolitaine, 53160, France"
897,TREBACZEW PL,18.921633,51.1305416,"Trębaczew, gmina Działoszyn, powiat pajęczański, województwo łódzkie, 98-355, Polska"
898,TRICASTIN-POSTE LE FR,,,
899,TUCZNAWA PL,19.3169168,50.3905095,"Tucznawa, Dąbrowa Górnicza, Górnośląsko-Zagłębiowska Metropolia, województwo śląskie, 42-522, Polska"
900,Tabor CZ,14.6587234,49.4141533,"Tábor, okres Tábor, Jihočeský kraj, Jihozápad, Česko"
901,Tantareni RO,23.54031181005065,44.620712749999996,"Țânțăreni, Gorj, România"
902,Targiu Jiu Nord RO,,,
903,Targoviste A RO,25.458995,44.9295788,"Ordinul Arhitecților din România, 12, Strada Alexandru Ioan Cuza, Târgoviște, Dâmbovița, 130008, România"
904,Targoviste B RO,25.458995,44.9295788,"Ordinul Arhitecților din România, 12, Strada Alexandru Ioan Cuza, Târgoviște, Dâmbovița, 130008, România"
905,Targu Jiu Nord RO,23.291546518811383,45.04262235,"Cimitirul municipal Târgu-Jiu, Târgu Jiu, Gorj, România"
906,Tariverde RO,28.6019266,44.562932,"Tariverde, Cogealac, Constanța, 907076, România"
907,Taürn AT,,,
908,Teleajen RO,26.0781419,44.9470384,"Teleajen, Ploiești, Prahova, 100412, România"
909,Ternitz AT,16.0194688,47.7066007,"Gemeinde Ternitz, Bezirk Neunkirchen, Niederösterreich, Österreich"
910,Teufelsbruch DE,14.103034198555703,51.3076772,"Teufelsbruch, Schönteichen, Kamenz - Kamjenc, Bautzen, Sachsen, 01917, Deutschland"
911,Thyrow DE,13.253345513862147,52.25203545,"Thyrow, Trebbin, Teltow-Fläming, Brandenburg, Deutschland"
912,Tihau RO,23.3294531,47.2265615,"Tihău, Sălaj, 457321, România"
913,Timisoara RO,21.2257474,45.7538355,"Timișoara, Timiș, România"
914,Tiszalok HU,21.37997369731514,48.01333525,"Tiszalök, Tiszavasvári járás, Szabolcs-Szatmár-Bereg megye, Észak-Alföld, Alföld és Észak, Magyarország"
915,Toponar HU,17.8347968,46.3935614,"Toponár, Kaposvár, Kaposvári járás, Somogy megye, Dél-Dunántúl, Dunántúl, 7408, Magyarország"
916,Trebinje HR,,,
917,Trennfeld DE,9.6151453,49.7950676,"Trennfeld, Landkreis Main-Spessart, Bayern, Deutschland"
918,Trossingen DE,8.6362987,48.07506,"Trossingen, Verwaltungsgemeinschaft Trossingen, Landkreis Tuttlingen, Baden-Württemberg, 78647, Deutschland"
919,Tulcea Vest RO,28.791124987532015,45.18251,"Tulcea, Strada Inginer Dumitru Ivanov, Cartier Vest Blocuri, Tudor Vladimirescu, Tulcea, 820001, România"
920,Tumbri HR,15.8713947,45.6808114,"Tumbri, Kupinečki Kraljevec - centar, Gradska četvrt Brezovica, Grad Zagreb, Hrvatska"
921,Tumbri SI,,,
922,Turnu Magurele RO,24.8703617,43.7421632,"DOLCHIMEX GPL TURNU MAGURELE, Calea Dunării, Turnu Măgurele, Teleorman, 145200, România"
923,Turnu Severin Est RO,22.6501356,44.642043,"Farmexim Est, Bulevardul Mihai Viteazu, Drobeta-Turnu Severin, Mehedinți, 220067, România"
924,Tuzla HR,,,
925,Twistetal DE,8.9565896,51.3360242,"Twistetal, Landkreis Waldeck-Frankenberg, Hessen, 34477, Deutschland"
926,Tynec CZ,13.263697,49.34712,"Týnec, okres Klatovy, Plzeňský kraj, Jihozápad, Česko"
927,Ugljevik HR,,,
928,Ungheni RO,24.4574193,46.4834798,"Ungheni, Zona Metropolitană Târgu Mureș, Mureș, România"
929,Unterweser DE,8.47470485186373,53.4286009,"Unterweser, 2, Dedesdorfer Straße, Kleinensiel, Rodenkirchen, Stadland, Landkreis Wesermarsch, Niedersachsen, 26935, Deutschland"
930,Urberach DE,8.7983132,49.9732123,"Urberach, Rödermark, Landkreis Offenbach, Hessen, 63322, Deutschland"
931,Urechesti RO,27.0860142,46.1325018,"Urechești, Bacău, 607655, România"
932,V. Dur SK,17.8105484,48.3965514,"Dúr, Bojničky, okres Hlohovec, Trnavský kraj, Západné Slovensko, 920 55, Slovensko"
933,V. Kapusany SK,21.3354477,49.0453206,"Kapušany, okres Prešov, Prešovský kraj, Východné Slovensko, 082 12, Slovensko"
934,V.Dur SK,17.8105484,48.3965514,"Dúr, Bojničky, okres Hlohovec, Trnavský kraj, Západné Slovensko, 920 55, Slovensko"
935,V.Kapusany SK,21.3354477,49.0453206,"Kapušany, okres Prešov, Prešovský kraj, Východné Slovensko, 082 12, Slovensko"
936,VALDIVIENNE FR,0.6180033795320352,46.4991111,"Valdivienne, Montmorillon, Vienne, Nouvelle-Aquitaine, France métropolitaine, 86300, France"
937,VAN EYCK BE,3.2259652,51.2114086,"Jan Van Eyck, 12, Jan van Eyckplein, Sint-Walburgakwartier, Brugge-Centrum, Brugge, West-Vlaanderen, Vlaanderen, 8000, België / Belgique / Belgien"
938,VAUJANY FR,6.099530794905666,45.1885259,"Vaujany, Grenoble, Isère, Auvergne-Rhône-Alpes, France métropolitaine, 38114, France"
939,VAUPALIERE LA FR,0.9964737846876361,49.480255150000005,"La Vaupalière, Rouen, Seine-Maritime, Normandie, France métropolitaine, 76150, France"
940,VDUR SK,,,
941,VE Padene HR,16.0981044,44.0877971,"Pađene, Općina Ervenik, Šibensko-kninska županija, Hrvatska"
942,VENAUS FR,7.0125697,45.1549096,"Venaus, Torino, Piemonte, Italia"
943,VERBRANDE BRUG BE,4.413331677906681,50.94785565,"Verbrande Brug, Verbrande Brugsteenweg, Verbrande Brug, Grimbergen, Halle-Vilvoorde, Vlaams-Brabant, Vlaanderen, 1850, België / Belgique / Belgien"
944,VERFEIL FR,1.680062396659266,43.657973049999995,"Verfeil, Toulouse, Haute-Garonne, Occitanie, France métropolitaine, 31590, France"
945,VERGER FR,1.0053354,44.429623,"Verger, Thézac, Villeneuve-sur-Lot, Lot-et-Garonne, Nouvelle-Aquitaine, France métropolitaine, 47370, France"
946,VESLE FR,4.2550671,49.1442642,"Vesle, Sept-Saulx, Reims, Marne, Grand Est, France métropolitaine, 51400, France"
947,VIELMOULIN FR,,,
948,VIERRADEN PL,,,
949,VIGY FR,6.309176773847806,49.208537199999995,"Vigy, Metz, Moselle, Grand Est, France métropolitaine, 57640, France"
950,VILLARODIN FR,6.7112786,45.2082077,"Villarodin, La Norma, Villarodin-Bourget, Saint-Jean-de-Maurienne, Savoie, Auvergne-Rhône-Alpes, France métropolitaine, 73500, France"
951,VILLECHETIVE FR,3.5120683965471464,48.095359,"Villechétive, Sens, Yonne, Bourgogne-Franche-Comté, France métropolitaine, 89320, France"
952,VILLEJUST FR,2.2282699884132304,48.67891,"Villejust, Palaiseau, Essonne, Île-de-France, France métropolitaine, 91140, France"
953,VILLERBON FR,1.364379193008399,47.6641642,"Villerbon, Blois, Loir-et-Cher, Centre-Val de Loire, France métropolitaine, 41000, France"
954,VILLEROUX BE,4.6065097,50.6023277,"Villeroux, Chastre, Nivelles, Brabant wallon, Wallonie, 1450, België / Belgique / Belgien"
955,VILLEVAUDE FR,2.6609060096976336,48.91366135,"Villevaudé, Meaux, Seine-et-Marne, Île-de-France, France métropolitaine, 77410, France"
956,VINCEY FR,6.32886890646409,48.33217865,"Vincey, Épinal, Vosges, Grand Est, France métropolitaine, 88450, France"
957,VOGELGRUN FR,7.582576613486754,48.0117874,"Vogelgrun, Colmar-Ribeauvillé, Haut-Rhin, Grand Est, France métropolitaine, 68600, France"
958,Van Eyck NL,-73.90425441610519,42.82415435,"Van Velsen, Mills Ten Eyck End, Netherlands Village, Schenectady, Schenectady County, New York, 12308, United States"
959,Varin CZ,,,
960,Varin SK,18.8704995,49.2014402,"Varín, okres Žilina, Žilinský kraj, Stredné Slovensko, 013 03, Slovensko"
961,Varna RO,25.5812919,45.5913513,"Varna, Brașov, 500001, România"
962,Velebit HR,15.5,44.365,"Velebit, Grad Gospić, Ličko-senjska županija, Hrvatska"
963,Velky Dur HU,21.0390629,48.2367425,"Nagykinizs, Szikszói járás, Borsod-Abaúj-Zemplén megye, Észak-Magyarország, Alföld és Észak, 3844, Magyarország"
964,Velky Dur SK,18.4462159,48.2114883,"Veľký Ďur, okres Levice, Nitriansky kraj, Západné Slovensko, 935 34, Slovensko"
965,Veltheim DE,10.6825692,52.2181829,"Veltheim, Samtgemeinde Sickte, Landkreis Wolfenbüttel, Niedersachsen, Deutschland"
966,Vetis RO,22.7778948,47.8002165,"Vetiș, Satu Mare, România"
967,Vierraden DE,14.29611,53.0978481,"Vierraden, Schwedt/Oder, Uckermark, Brandenburg, 16303, Deutschland"
968,Vierverlaten NL,6.485299,53.2131296,"Vierverlaten, Hoogkerk, Groningen, Nederland"
969,Vieselbach DE,11.14690662869396,50.9954483,"Vieselbach, Erfurt, Thüringen, Deutschland"
970,Vijfhuizen NL,4.6782318,52.3507789,"Vijfhuizen, Haarlemmermeer, Noord-Holland, Nederland"
971,Vill DE,121.1151365,14.5529068,"Germany, Exodus Barangay Assoc., Santa Ana, Taytay, Rizal, Calabarzon, 1920, Luzon"
972,Villach Süd AT,13.836728019002727,46.59370895000001,"MediaMarkt Villach, 8, Auenweg, Gewerbezone Süd, Auen, Villach, Kärnten, 9500, Österreich"
973,Villingen DE,8.4598995,48.0596619,"Villingen, Villingen-Schwenningen, Verwaltungsgemeinschaft Villingen-Schwenningen, Schwarzwald-Baar-Kreis, Baden-Württemberg, 78052, Deutschland"
974,Vitkov CZ,17.7517864,49.7758144,"Vítkov, okres Opava, Moravskoslezský kraj, Moravskoslezsko, Česko"
975,Vöhringen DE,10.0832982,48.2833039,"Vöhringen, Landkreis Neu-Ulm, Bayern, 89269, Deutschland"
976,Vörden DE,8.096003,52.4784717,"Vörden, Neuenkirchen-Vörden, Landkreis Vechta, Niedersachsen, 49434, Deutschland"
977,Vogelgrun DE,,,
978,Vojany SK,21.9899835,48.5696123,"Vojany, okres Michalovce, Košický kraj, Východné Slovensko, Slovensko"
979,Vola SK,21.843886404225184,48.8410159,"Voľa, okres Michalovce, Košický kraj, Východné Slovensko, Slovensko"
980,Voslapp DE,8.1030466,53.5870017,"Voslapp, Wilhelmshaven, Niedersachsen, Deutschland"
981,Vyskov CZ,16.9994446,49.2778194,"Vyškov, okres Vyškov, Jihomoravský kraj, Jihovýchod, 68201, Česko"
982,WANDA PL,19.4279041,50.2005654,"Wanda, Trzebinia, gmina Trzebinia, powiat chrzanowski, województwo małopolskie, Polska"
983,WARANDE FR,2.5964359,50.8519737,"Warande Straete, Steenvoorde, Dunkerque, Nord, Hauts-de-France, France métropolitaine, 59114, France"
984,WEPPES FR,2.894556573653534,50.593582,"Fournes-en-Weppes, Lille, Nord, Hauts-de-France, France métropolitaine, 59134, France"
985,WIELOPOLE PL,19.45501,51.4126,"Wielopole, gmina Bełchatów, powiat bełchatowski, województwo łódzkie, 97-400, Polska"
986,WLOCLAWEK AZ PL,19.0722963,52.66017,"Włocławek, województwo kujawsko-pomorskie, 87-800, Polska"
987,WROCLAW PL,17.0326689,51.1089776,"Wrocław, województwo dolnośląskie, Polska"
988,WRZOSOWA PL,15.2342495,51.2384829,"Wrzosowa, Czerwona Woda, gmina Węgliniec, powiat zgorzelecki, województwo dolnośląskie, 59-942, Polska"
989,Wahle DE,10.3634402,52.2717618,"Wahle, Vechelde, Landkreis Peine, Niedersachsen, 38159, Deutschland"
990,Waldeck DE,9.0619393,51.2059609,"Waldeck, Landkreis Waldeck-Frankenberg, Hessen, 34513, Deutschland"
991,Walgau DE,,,
992,Walgauwerk AT,9.6696529,47.2007073,"Abfluss Walgauwerk, Latz, Marktgemeinde Nenzing, Bezirk Bludenz, Vorarlberg, 6710, Österreich"
993,Wallsee AT,14.7156931,48.1672231,"Wallsee, Wallsee-Sindelburg, Bezirk Amstetten, Niederösterreich, 3313, Österreich"
994,Wateringen NL,4.2745855,52.0235098,"Wateringen, Westland, Zuid-Holland, Nederland"
995,Wechold DE,9.1263681,52.8480963,"Wechold, Hilgermissen, Samtgemeinde Grafschaft Hoya, Landkreis Nienburg/Weser, Niedersachsen, Deutschland"
996,Wehrendorf DE,8.3132774,52.3322323,"Wehrendorf, Landkreis Osnabrück, Niedersachsen, Deutschland"
997,Weida DE,12.0470063,50.7581426,"Weida, Greiz, Thüringen, 07570, Deutschland"
998,Weier DE,7.2713731,51.0375352,"Weier, Waldmühle, Kürten, Rheinisch-Bergischer Kreis, Nordrhein-Westfalen, 51515, Deutschland"
999,Weingarten DE,9.6431145,47.8075299,"Weingarten, Verwaltungsverband Mittleres Schussental, Landkreis Ravensburg, Baden-Württemberg, 88250, Deutschland"
1000,Weinheim DE,8.6717458,49.5462349,"Weinheim, Rhein-Neckar-Kreis, Baden-Württemberg, 69469, Deutschland"
1001,Weissenbach AT,14.2050646,47.5703063,"Weißenbach, Liezen, Bezirk Liezen, Steiermark, 8940, Österreich"
1002,Weiwerd NL,6.9474512,53.3112472,"Weiwerd, Farmsum, Eemsdelta, Groningen, Nederland, 9936HP, Nederland"
1003,Wendlingen DE,9.3731804,48.6730258,"Wendlingen (Neckar), Bahnhofstraße, Unterboihingen, Wendlingen am Neckar, Gemeindeverwaltungsverband Wendlingen am Neckar, Landkreis Esslingen, Baden-Württemberg, 73240, Deutschland"
1004,Wessin DE,11.747327628589233,53.5683948,"Wessin, Crivitz, Ludwigslust-Parchim, Mecklenburg-Vorpommern, Deutschland"
1005,Westerlee NL,6.979104407801248,53.13592075,"Westerlee, Oldambt, Groningen, Nederland"
1006,Westtirol AT,10.82782065236764,47.234094400000004,"Abfallbeseitigungsverband Westtirol, Tschirgantweg, Roppen, Gemeinde Roppen, Bezirk Imst, Tirol, 6426, Österreich"
1007,Westtirol DE,,,
1008,Wielopole CZ,,,
1009,Wien HU,16.3631959,48.2103746,"Botschaft von Ungarn, 4-6, Bankgasse, Schottenviertel, Innere Stadt, Wien, 1010, Österreich"
1010,Wien Südost AT,16.395635866287797,48.15937355,"Fußballklub Austria Wien Nachwuchsakademie, 143, Laaer-Berg-Straße, Siedlung Südost, KG Oberlaa Stadt, Favoriten, Wien, 1100, Österreich"
1011,Wiesloch DE,8.698707,49.2942599,"Wiesloch, Verwaltungsgemeinschaft Wiesloch, Rhein-Neckar-Kreis, Baden-Württemberg, 69168, Deutschland"
1012,Wilster W DE,9.383516525137313,53.916904099999996,"Schützenverein Wilster, Schilfweg, Wilster, Steinburg, Schleswig-Holstein, 25554, Deutschland"
1013,Wolkramshausen DE,10.7388945,51.423397,"Wolkramshausen, Bleicherode, Landkreis Nordhausen, Thüringen, Deutschland"
1014,Wolmirstedt DE,11.6267388,52.2484924,"Wolmirstedt, Börde, Sachsen-Anhalt, Deutschland"
1015,Würgassen DE,9.4071653,51.6445021,"Würgassen, Beverungen, Kreis Höxter, Nordrhein-Westfalen, Deutschland"
1016,Würgau DE,11.0903786,49.9789954,"Würgau, Scheßlitz, Landkreis Bamberg, Bayern, Deutschland"
1017,Wuhlheide Abzweig DE,13.5464846,52.4717342,"Berlin Ostendgestell, Fliederweg, Kleingartenanlage Gartenfreunde Wuhlheide, Oberschöneweide, Treptow-Köpenick, Berlin, 12459, Deutschland"
1018,Wuhlheide DE,13.562066762772146,52.4610745,"Wuhlheide, Treptow-Köpenick, Berlin, Deutschland"
1019,Wustermark DE,12.9404114,52.5462731,"Wustermark, Havelland, Brandenburg, 14641, Deutschland"
1020,Alfstedt DE,9.0666915,53.5499782,"Alfstedt, Samtgemeinde Geestequelle, Landkreis Rotenburg (Wümme), Niedersachsen, Deutschland"
1021,Altlussheim DE,8.4981809,49.3004929,"Altlußheim, Verwaltungsgemeinschaft Hockenheim, Rhein-Neckar-Kreis, Baden-Württemberg, 68804, Deutschland"
1022,Bruchsal DE,8.5980244,49.124118,"Bruchsal, Verwaltungsgemeinschaft Bruchsal, Landkreis Karlsruhe, Baden-Württemberg, 76646, Deutschland"
1023,Bruchsal Kändelweg DE,8.5573079,49.1327575,"Bruchsal Kändelweg, Industriestraße, West II, Bruchsal, Verwaltungsgemeinschaft Bruchsal, Landkreis Karlsruhe, Baden-Württemberg, 76646, Deutschland"
1024,Bühl DE,8.134423,48.6945066,"Bühl, Vereinbarte Verwaltungsgemeinschaft Bühl, Landkreis Rastatt, Baden-Württemberg, 77815, Deutschland"
1025,Daxlanden DE,8.3386057,49.0014111,"Daxlanden, Karlsruhe, Baden-Württemberg, Deutschland"
1026,Dellmensingen DE,9.9039744,48.3021614,"Dellmensingen, Erbach, Alb-Donau-Kreis, Baden-Württemberg, 89155, Deutschland"
1027,Dörnigheim DE,8.832138271733125,50.13695465,"Dörnigheim, Maintal, Main-Kinzig-Kreis, Hessen, Deutschland"
1028,Emden O DE,8.1010377,51.5531356,"Emdenstraße, Hiddingsen, Soest, Kreis Soest, Nordrhein-Westfalen, 59494, Deutschland"
1029,Endersbach DE,9.3655003,48.8103115,"Endersbach, Weinstadt, Rems-Murr-Kreis, Baden-Württemberg, 71384, Deutschland"
1030,Engstlatt DE,8.875064,48.2995026,"Engstlatt, Balingen, Gemeindeverwaltungsverband Balingen, Zollernalbkreis, Baden-Württemberg, 72415, Deutschland"
1031,Erzhausen DE,8.6389953,49.9524332,"Erzhausen, Landkreis Darmstadt-Dieburg, Hessen, 64390, Deutschland"
1032,Frankfurt SW DE,14.4227407,51.1887438,"Frankfurt, Seidau - Židow, Westvorstadt - Zapadne předměsto, Bautzen - Budyšin, Bautzen, Sachsen, 02625, Deutschland"
1033,Gurtweil DE,8.2465136,47.6412423,"Gurtweil, Waldshut-Tiengen, Verwaltungsgemeinschaft Waldshut-Tiengen, Landkreis Waldshut, Baden-Württemberg, 79761, Deutschland"
1034,Hallendorf DE,10.3775522,52.1533277,"Hallendorf, Ortschaft Ost, Salzgitter, Niedersachsen, Deutschland"
1035,Herbertingen DE,9.44792963061036,48.0593422,"Herbertingen, Verwaltungsgemeinschaft Bad Saulgau, Landkreis Sigmaringen, Baden-Württemberg, 88518, Deutschland"
1036,Hoheneck DE,8.0234996,47.6256944,"Hoheneck, Görwihl, Landkreis Waldshut, Baden-Württemberg, 79733, Deutschland"
1037,Hüffenhardt DE,9.0827453,49.2908862,"Hüffenhardt, Verwaltungsgemeinschaft Haßmersheim, Neckar-Odenwald-Kreis, Baden-Württemberg, 74928, Deutschland"
1038,Huntorf DE,8.3897014,53.1956997,"Huntorf, Butteldorf, Elsfleth, Landkreis Wesermarsch, Niedersachsen, 26931, Deutschland"
1039,Krün DE,11.2787041,47.5061521,"Krün, Landkreis Garmisch-Partenkirchen, Bayern, Deutschland"
1040,Kühmoos DE,12.9236498,48.7556165,"Kühmoos, Aholming, Landkreis Deggendorf, Bayern, 94527, Deutschland"
1041,Laufenburg DE,8.0599414,47.5671976,"Laufenburg (Baden), Landkreis Waldshut, Baden-Württemberg, 79725, Deutschland"
1042,Niederlangen DE,7.2805369,52.8572175,"Niederlangen, Samtgemeinde Lathen, Landkreis Emsland, Niedersachsen, 49779, Deutschland"
1043,Oberjettingen DE,8.7743305,48.575961,"Oberjettingen, Jettingen, Gemeindeverwaltungsverband Oberes Gäu, Landkreis Böblingen, Baden-Württemberg, 71131, Deutschland"
1044,Plattling DE,12.8750665,48.7772562,"Plattling, Landkreis Deggendorf, Bayern, 94447, Deutschland"
1045,Rhede DE,6.696091,51.8363135,"Rhede, Kreis Borken, Nordrhein-Westfalen, 46414, Deutschland"
1046,Simbach DE,12.7405704,48.5638267,"Simbach, Landkreis Dingolfing-Landau, Bayern, 94436, Deutschland"
1047,Vörden DE,8.096003,52.4784717,"Vörden, Neuenkirchen-Vörden, Landkreis Vechta, Niedersachsen, 49434, Deutschland"
1048,Waldeck DE,9.0619393,51.2059609,"Waldeck, Landkreis Waldeck-Frankenberg, Hessen, 34513, Deutschland"
1049,Wechold DE,9.1263681,52.8480963,"Wechold, Hilgermissen, Samtgemeinde Grafschaft Hoya, Landkreis Nienburg/Weser, Niedersachsen, Deutschland"
1050,Werben DE,11.9822053,52.8612295,"Werben, Werben (Elbe), Arneburg-Goldbeck, Stendal, Sachsen-Anhalt, Deutschland"
1051,YVELINES-OUEST FR,2.109008504499873,48.81035970000001,"Versailles-Nord-Ouest, Versailles, Yvelines, Île-de-France, France métropolitaine, 78000, France"
1052,Ybbsfeld AT,15.0286559,48.145133,"Ybbsfeldstraße, Mehlberg, Ennsbach, Sankt Martin-Karlsbach, Bezirk Melk, Niederösterreich, 3376, Österreich"
1053,ZABKOWICE PL,19.2661927,50.3769914,"Ząbkowice, Dąbrowa Górnicza, Górnośląsko-Zagłębiowska Metropolia, województwo śląskie, 42-520, Polska"
1054,ZAMOSC PL,23.259588703837892,50.721273,"Zamość, województwo lubelskie, Polska"
1055,ZANDVLIET BE,4.3086817,51.3599666,"Zandvliet, Berendrecht-Zandvliet-Lillo, Antwerpen, Vlaanderen, België / Belgique / Belgien"
1056,ZARNOWIEC PL,19.86242,50.4832713,"Żarnowiec, gmina Żarnowiec, powiat zawierciański, województwo śląskie, 42-439, Polska"
1057,ZGIERZ PL,19.390634827153598,51.8555209,"Zgierz, powiat zgierski, województwo łódzkie, Polska"
1058,ZUKOWICE PL,20.741927062127417,50.29932075,"Żukowice, gmina Nowy Korczyn, powiat buski, województwo świętokrzyskie, Polska"
1059,ZYDOWO KIERZKOWO PL,16.707052296680793,54.02514465,"Elektrownia Wodna Żydowo, 205, Żydowo, gmina Polanów, powiat koszaliński, województwo zachodniopomorskie, 76-012, Polska"
1060,ZYDOWO PL,20.8393237,54.3105599,"Żydowo, gmina Bartoszyce, powiat bartoszycki, województwo warmińsko-mazurskie, 11-200, Polska"
1061,Zahidno Ukrainska HU,,,
1062,Zakucac HR,16.7000393,43.4572839,"Zakučac, Grad Omiš, Splitsko-dalmatinska županija, Hrvatska"
1063,Zandvliet NL,5.31583,51.59238,"Zandvliet, Boxtel, Noord-Brabant, Nederland, 5282PC, Nederland"
1064,Zell am Ziller AT,11.881991,47.2335951,"Zell am Ziller, Marktgemeinde Zell am Ziller, Bezirk Schwaz, Tirol, 6277, Österreich"
1065,Zeltweg AT,14.7549244,47.1912045,"Zeltweg, Bezirk Murtal, Steiermark, 8740, Österreich"
1066,Zerjavinec HR,16.1650186,45.8688625,"Žerjavinec, Grad Zagreb, 10362, Hrvatska"
1067,Zerjavinec HU,,,
1068,Zerjavinec SI,,,
1069,Zeyerveen NL,,,
1070,Zolling DE,11.7727339,48.4514051,"Zolling, Zolling (VGem), Landkreis Freising, Bayern, 85406, Deutschland"
1071,Zuglo HU,19.11434210164609,47.5228628,"XIV. kerület, Budapest, Közép-Magyarország, Magyarország"
1072,Zurndorf AT,16.993504006410205,47.97572155,"Zurndorf, Bezirk Neusiedl am See, Burgenland, 2424, Österreich"
1073,Zurndorf HU,,,
1074,Zwolle NL,6.0943765,52.5089759,"Zwolle, Overijssel, Nederland"
1075,d. Mostistea RO,-47.2740393,-21.7071681,"Romania, Rua Doutor Alfredo Guedes, Tambaú, Região Imediata de São João da Boa Vista, Região Metropolitana de Ribeirão Preto, Região Geográfica Intermediária de Campinas, São Paulo, Região Sudeste, 13710-000, Brasil"
1076,,,,
